id,chain_id,name,address,city,state,postcode,phonenumber,country,email
1,5,Costco Anjou,"7373 Rue Bombardier,",Montréal ,Québec,H1J 2V2,, Canada,
2,5,Costco Boisbriand,"3600 Avenue Des Grandes Tourelles,",Boisbriand,Québec,J7H 1M9,, Canada,
3,5,Costco Boucherville,"635 Chemin de Touraine,",Boucherville,Québec,J4B 0B6,, Canada,
4,5,Costco Brossard,"9430 Boulevard Taschereau,",Brossard,Québec,J4X 2W2,, Canada,
5,5,Costco Candiac,"60 Rue de Strasbourg,",Candiac,Québec,J5R 0B4,, Canada,
6,5,Costco Chicoutimi,"2500 Boulevard Talbot,",Chicoutimi,Québec,G7H 5B1,, Canada,
7,5,Costco Drummondville,"105 Rue Robert Bernard,",Drummondville,Québec,J2C 8N1,, Canada,
8,5,Costco Gatineau,"1100 Boulevard Maloney Ouest,",Gatineau,Québec,K1A 1L4,, Canada,
9,5,Costco Laval,"2999 Autoroute 440,",Laval,Québec,H7P 5P4,, Canada,
10,5,Costco Montréal,"300 Rue Bridge,",Montréal ,Québec,H3K 2C3,, Canada,
11,5,Costco  Marché Central,"1015 Rue du Marché Central,",Montréal ,Québec,H4N 3J8,, Canada,
12,5,Costco Pointe-Claire,"5701 Trans-Canada Hwy,",Pointe-Claire,Québec,H9R 5E8,, Canada,
13,5,Costco Québec,"440 Rue Bouvier,",Québec,Québec,G2J 1E3,, Canada,
14,5,Costco Saint-Hubert,"5025 Boulevard Cousineau,",Saint-Hubert,Québec,J3Y 3K7,, Canada,
15,5,Costco Saint-Jérôme,"1001 Boulevard Jean-Baptiste-Rolland Est,",Saint-Jérôme,Québec,J7Z 2G9,, Canada,
16,5,Costco Sainte-Foy,"3233 Avenue Watt,",Québec,Québec,G1X 3Y8,, Canada,
17,5,Costco Sherbrooke,"3400 Rue King Ouest,",Sherbrooke,Québec,J1L 1C9,, Canada,
18,5,Costco Terrebonne,"870 Montée des Pionniers,",Terrebonne,Québec,J6V 1N9,, Canada,
19,5,Costco Trois-Rivières,"3000 Boulevard des Récollets,",Trois-Rivières-Ouest,Québec,G9A 6M9,, Canada,
20,5,Costco Vaudreuil,"22400 Chemin Dumberry,",Vaudreuil-Dorion,Québec,J7V 0M8,, Canada,
21,41,Walmart Alma ,1755 avenue du Pont Sud, Alma,Québec,, QC 418-480-3883, Canada,
22,41,"Walmart Baie-Comeau, 630", boul. Laflèche, Baie-Comeau,Québec,, QC 418-589-9971, Canada,
23,41,"Walmart Beauport ,224", boul. Joseph-Casavant, Beauport,Québec,, QC 418-660-4943, Canada,
24,41,Walmart Brossard,9000 boul. Leduc,Brossard,Québec,J4Y 0G4, QC 450-672-5000, Canada,
25,41,Walmart Cap-de-la-Madeleine 300, rue Barkoff, Cap-de-la-Madeleine,Québec,, QC 819-379-2992, Canada,
26,41,"Walmart Châteauguay ,",250 boul. Brisebois, Châteauguay,Québec,, QC 450-699-3435, Canada,
27,41,"Walmart Chicoutimi ,", 1451 boul. Talbot, Chicoutimi,Québec,, QC 418-693-1500, Canada,
28,41,"Walmart Cowansville ,", 1770 rue du Sud, Cowansville,Québec,, QC 450-263-6006, Canada,
29,41,"Walmart Drummondville ,", 1205 boul. René-Lévesque, Drummondville,Québec,, QC 819-472-6313, Canada,
30,41,"Walmart Granby ,", 75 rue Simonds Nord, Granby,Québec,, QC 450-777-8863, Canada,
31,41,"Walmart Joliette ,1505", boul. Firestone, Joliette,Québec,, QC 450-752-5221, Canada,
32,41,"Walmart Kirkland ,17 000", autoroute Transcanadienne, Kirkland,Québec,, QC 514-695-3040, Canada,
33,41,"Walmart Lachute ,480", rue Bethany, Lachute,Québec,, QC 450-562-0255, Canada,
34,41,"Walmart Lachenaie ,1001", rue des Migrateurs, Lachenaie,Québec,, QC 450-657-7407, Canada,
35,41,"Walmart Lac-Mégantic ,3130", rue Laval, Lac-Mégantic,Québec,, QC 819-583-2882, Canada,
36,41,"Walmart LaSalle ,6797", boul. Newman, LaSalle,Québec,, QC 514-368-2248, Canada,
37,41,"Walmart Laval ,2075"," boul. Chomedey,  suite 100", Laval,Québec,,QC 450-681-1126, Canada,
38,41,Walmart Laval Ste-Dorothée (Supercentre) 700, autoroute Chomedey Ouest, Laval,Québec,, QC 450-969-3226, Canada,
39,41,Walmart Laval Est (Supercentre) 5205, boul. Robert-Bourassa, Laval,Québec,, QC 450-661-7447, Canada,
40,41,"Walmart Longueuil (S.) ,", 2877 chemin de Chambly,Longueuil,Québec,J4L 1M8, QC 450-670-5335, Canada,
41,41,"Walmart Longueuil ,", 1999 boul. Roland-Therrien,Longueuil,Québec,J4N 1A3, QC 450-448-2688, Canada,
42,41,"Walmart Lévis ,5303", rue Louis-H.-La Fontaine, Lévis,Québec,, QC 418-833-8555, Canada,
43,41,Walmart La Pocatière 161," route 230 Ouest,  suite 400", La Pocatière,Québec,, QC 418-856-2000, Canada,
44,41,Walmart Magog 1935, rue Sherbrooke, Magog,Québec,, QC 819-868-0471, Canada,
45,41,Walmart Mascouche (Supercentre) 155, Montée Masson, Mascouche,Québec,, QC 450-474-6010, Canada,
46,41,Walmart Matane 150, rue Piuze, Matane,Québec,, QC 418-566-4779, Canada,
47,41,Walmart Montréal (Côte-des-Neiges) , 6700 chemin de la Côte-des-Neiges,Montréal ,Québec,H3S 2B2, QC 514-737-1661, Canada,
48,41,Walmart Montréal , 5400 rue Jean-Talon Ouest,Montréal ,Québec,H4P 2T5, QC 514-735-5295, Canada,
49,41,Walmart Montréal (Dorval) 400, avenue Dorval, Dorval,Québec,, QC 514-636-1145, Canada,
50,41,Walmart Montréal (Hochelaga)  , 3121 avenue de Granby,Montréal ,Québec,J4L 1M8, QC 514-255-7676, Canada,
51,41,Walmart Montreal Saint-Léonard 7445, boul. Langelier, Saint-Léonard,Québec,, QC 514-899-1889, Canada,
52,41,Walmart Montréal-Nord , 6140 boul. Henri-Bourassa Est,Montréal ,Québec,H1G 5X3, QC 514-324-7853, Canada,
53,41,Walmart Pincourt 101, boul. Cardinal-Léger, Pincourt,Québec,, QC 514-453-5868, Canada,
54,41,Walmart Pointe-aux-Trembles 12 675, rue Sherbrooke S., Pointe-aux-Trembles,Québec,, QC 514-642-4441, Canada,
55,41,Walmart Québec 1700, boul. Lebourgneuf, Québec,Québec,, QC 418-623-7339, Canada,
56,41,Walmart Rosemère 401, boul. Curé-Labelle, Rosemère,Québec,, QC 450-435-2982, Canada,
57,41,Walmart Repentigny 100," boul. Brien, suite 66", Repentigny,Québec,, QC 450-654-8886, Canada,
58,41,Walmart Rivière-du-Loup 100, rue des Cerisiers, Rivière-du-Loup,Québec,, QC 418-862-3003, Canada,
59,41,Walmart Rimouski 415, montée, Rimouski,Québec,, QC 418-722-1990, Canada,
60,41,Walmart Sherbrooke 4050, boul. Josaphat-Rancourt, Sherbrooke,Québec,, QC 819-823-8382, Canada,
61,41,Walmart Sherbrooke (E.) (Fleurimont) 940, 13e Avenue Nord, Sherbrooke,Québec,, QC 819-346-2626, Canada,
62,41,Walmart Shawinigan 1600, boul. Royal, Shawinigan,Québec,, QC 819-537-3113, Canada,
63,41,Walmart Sainte-Foy 1470, rue Jules-Verne, Sainte-Foy,Québec,, QC 418-874-6068, Canada,
64,41,Walmart Saint-Romuald 700, rue de la Concorde, Saint-Romuald,Québec,, QC 418-834-5115, Canada,
65,41,Walmart Sainte-Agathe-des-Monts 400, rue Laverdure, Sainte-Agathe-des-Monts,Québec,, QC 819-326-9559, Canada,
66,41,Walmart Saint-Georges-de-Beauce 750, 107e Rue, Saint-Georges-de-Beauce,Québec,, QC 418-220-0101, Canada,
67,41,Walmart Saint-Eustache 764, boul. Arthur-Sauvé, Saint-Eustache,Québec,, QC 450-491-6922, Canada,
68,41,Walmart Saint-Constant 500, voie de desserte, Saint-Constant,Québec,, QC 450-632-2192, Canada,
69,41,Walmart Saint-Bruno-de-Montarville 1475, boul. Saint-Bruno, Saint-Bruno-de-Montarville,Québec,, QC 450-653-9996, Canada,
70,41,Walmart Saint-Jean-sur-Richelieu ,100 rue Omer-Marcil,Saint-Jean-sur-Richelieu,Québec,J2W 2Y4, QC 450-349-0666, Canada,
71,41,Walmart Salaberry-de-Valleyfield 2050, boul. Monseigneur-Langlois, Salaberry-de-Valleyfield,Québec,, QC 450-371-5188, Canada,
72,41,Walmart Saint-Jérôme 1030, boul. du Grand-Héron, Saint-Jérôme,Québec,, QC 450-438-6776, Canada,
73,41,Walmart Saint-Hyacinthe ,"5950, Rue Martineau",Saint-Hyacinthe,Québec,J2R 2H6,450-796-4001, Canada,
74,41,Walmart Sorel-Tracy 450, boul. Poliquin, Sorel-Tracy,Québec,, QC 450-743-2992, Canada,
75,41,Walmart Thetford Mines 1025, boul. Frontenac Est, Thetford Mines,Québec,, QC 418-338-4884, Canada,
76,41,Walmart Trois-Rivières 4520," boul. Royal, suite 820", Trois-Rivières,Québec,, QC 819-372-1181, Canada,
77,41,Walmart Vaudreuil-Dorion 3050, boul. de la Gare, Vaudreuil-Dorion,Québec,, QC 450-510-3314, Canada,
78,41,Walmart Victoriaville 110, boul. Arthabaska Ouest, Victoriaville,Québec,, QC 819-758-2654, Canada,
79,2, Marché Adonis Laval,"2425 Boulevard Curé-Labelle,",Laval,Québec,H7T 1R3,(450) 978-2333, Canada,courriel.laval@groupeadonis.ca
80,2,Marché Adonis Sauvé,"2001 Rue Sauvé Ouest,",Montréal ,Québec,H4N 3L6 ,(514) 382-8606, Canada,courriel.sauve@groupeadonis.ca
81,2, Marché Adonis Pierrefonds,"4601 Boulevard des Sources,",Roxboro,Québec,H8Y 3C5,(514) 685-5050, Canada,courriel.ddo@groupeadonis.ca
82,2,Marché Adonis Place Vertu,"3100 Boulevard Thimens,",Montréal ,Québec,H4R 0C9,(514) 904-6789, Canada,courriel.vertu@groupeadonis.ca
83,2, Marché Adonis Rive-Sud,"8880 Boulevard Leduc,",Brossard,Québec,J4Y 0G4,(450) 656-9595, Canada,courriel.brossard@groupeadonis.ca
84,2,Marché Adonis Centre-Ville,"2173 rue Sainte-Catherine Ouest,",Montréal ,Québec,H3H 1M9,(514) 933-4747, Canada,courriel.seville@groupeadonis.ca
85,2,Marché Adonis Mississauga,"1240 Eglinton Avenue West,",Mississauga,Québec,L5V 1N3,(905) 363-0707, Canada,website.mississauga@adonisgroup.ca
86,2,Marché Adonis Scarborough,"20 Ashtonbee Rd,",Scarborough,Québec,M1L 3K9,(416) 642-1515, Canada,website.scarborough@adonisgroup.ca
87,2,Marché Adonis Anjou,"7250 Boul. Des Roseraies,",Montréal ,Québec,H1M 2T5,(514) 493-6667, Canada,courriel.anjou@groupeadonis.ca
88,2,Marché Adonis Laval-Est,"2655 ave. des Aristocrates,",Laval,Québec,H7E 0H3,(450) 665-8801, Canada,courriel.laval440@groupeadonis.ca
89,2,Marché Adonis Griffintown,"225 Rue Peel,",Montréal ,Québec,H3C 2G6,(514) 905-6499, Canada,courriel.griffintown@groupeadonis.ca
90,8,Fruiterie 440 ÎLE-JÉSUS (LAVAL),2888 Av. du Cosmodôme au CENTROPOLIS,Laval,Québec,H7T 2X1,(450) 973-9138, Canada,
91,8,Fruiterie 440 ÎLE DE MONTRÉAL,7500 boul. des GALERIES D'ANJOU,Montréal ,Québec,H1M 3M2,(514) 351-8440, Canada,
92,8,Fruiterie 440 RIVE-SUD,3840 boul. Taschereau,Greenfield Park,Québec,J4V 2H9,(450) 465-0440, Canada,
93,8,Fruiterie 440 RIVE-NORD,1570 Chemin Gascon,Terrebonne,Québec,J6X 3A2,(450) 964-3885, Canada,
94,8,Fruiterie 440 QUÉBEC,385 rue Soumande Face à la Place Fleurs de Lys,Québec,Québec,G1M 2X6,(418) 688-2440, Canada,
95,13,INTER MARCHÉ,3595 Concorde Est,Laval,Québec,,Tél.:, Canada,
96,13,INTER MARCHÉ,134 Bellerose Est,Laval,Québec,,Tél.: 450-661-2525, Canada,
97,13,INTER MARCHÉ,1000 Mont-Royal Est,Montréal ,Québec,H2J 1X6,Tél.: 514-598-5946, Canada,
98,13,INTER MARCHÉ,8725 Viau,Montréal ,Québec,H1R 1L4,Tél.: 514-321-4013, Canada,
99,13,INTER MARCHÉ,9125 Pie IX,Montréal ,Québec,H1Z 3V8,Tél.: 514-325-1331, Canada,
100,13,INTER MARCHÉ,5001 Jarry Est,Montréal ,Québec,H1R 1Y1,Tél.: 514-324-5666, Canada,
101,13,INTER MARCHÉ,5305 Jean-Talon Est,Montréal ,Québec,H1S 1L4,Tél.: 514-725-9212, Canada,
102,13,INTER MARCHÉ,9025 Maurice Duplessis,Montréal ,Québec,H1E 6M3,Tél.: 514-334-2328, Canada,
103,13,INTER MARCHÉ,310 Chabanel Ouest,Montréal ,Québec,H2N 1G5,Tél.: 515-388-6110, Canada,
104,13,INTER MARCHÉ,3701 St-Laurent,Montréal ,Québec,H2X 2V7,Tél.: 514-844-1874, Canada,
105,13,INTER MARCHÉ,265 Côte-Vertu,Montréal ,Québec,H4N 1C8,Tél.: 514-334-2328, Canada,
106,13,INTER MARCHÉ,1670 Avenue du Mont-Royal E,Montréal ,Québec,H2J 1Z5,Tél.: 514-727-0625, Canada,
107,13,INTER MARCHÉ,5600 Du Parc,Montréal ,Québec,H2V 4H1,Tél.: 514-272-5258, Canada,
108,13,INTER MARCHÉ,89 Mont-Royal Est,Montréal ,Québec,H2J 1Z5,Tél.: 514-849-6307, Canada,
109,13,INTER MARCHÉ,1451 Beaubien Est,Montréal ,Québec,H2G 3C6,Tél.: 514-495-3404, Canada,
110,13,INTER MARCHÉ,5915 Bélanger Est,Montréal ,Québec,H1T 1G8,Tél.: 514-259-4216, Canada,
111,13,INTER MARCHÉ,8520 Lacordaire,Montréal ,Québec,H1R 2A5,Tél.: 514-321-4013, Canada,
112,13,INTER MARCHÉ,8700 Langelier,Montréal ,Québec,H1P 3C6,Tél.: 514-323-0740, Canada,
113,12,IGA - Coop. des Consommateurs d'Alma,705 Avenue du Pont Nord,Alma,Québec,,Tél.: 418-662-7405, Canada,
114,12,IGA - Amos,122 Principale sud,Amos,Québec,,Tél.: 819-732-7782, Canada,
115,12,IGA - Coop IGA Amos,421 12e Avenue,Amos,Québec,,Tél.: 819-732-5281, Canada,
116,12,IGA - Alimentation Auteuil,5680 Boulevard des Laurentides,Auteuil,Québec,,Tél.: 450-625-1591, Canada,
117,12,IGA - Supermarché Gilbert Tremblay inc.,203 Chemain Aylmer,Aylmer,Québec,,Tél.: 819-684-0001, Canada,
118,12,IGA - Alimentation Richard Morin,1500 De Bretagne,Baie-Comeau,Québec,,Tél.: 418-589-3870, Canada,
119,12,IGA - Supermarché G.C. inc.,1020 Boulevard Mgr-De Laval,Baie-Saint-Paul,Québec,,Tél.: 418-435-5210, Canada,
120,12,IGA - Supermarché Beauceville inc.,630-D Boulevard Renault,Beauceville,Québec,,Tél.: 418-774-3333, Canada,
121,12,IGA - Marché Reid & Gadoua inc.,300 Rue Ellice,Beauharnois,Québec,,Tél.: 450-429-5925, Canada,
122,12,IGA - Extra Beauport,969 Nordique,Beauport,Québec,,Tél.: 418-667-5700, Canada,
123,12,IGA - Marché Vieux Beauport inc,771 Avenue Royale,Beauport,Québec,,Tél.: 418-661-9181, Canada,
124,12,IGA - Marché Robert Tellier (1990) inc.,1085 Boulevard Roland-Godard,Bellefeuille,Québec,,Tél.: 450-565-5977, Canada,
125,12,IGA - Les Marchés Pepin inc.,825 Boulevard Yvon-L'heureux,Beloeil,Québec,,Tél.: 450-464-4219, Canada,
126,12,IGA - Marché Croisetière Berthier inc.,1071 Avenue Gilles Villeneuve,Berthierville,Québec,,Tél.: 450-836-3775, Canada,
127,12,IGA - La Seigneurie Blainville inc.,9 Boulevard des Seigneurs,Blainville,Québec,,Tél.: 450-434-3313, Canada,
128,12,IGA - Supermarché Jacques Daigle inc,25 Boulevard des Entreprises,Boisbriand,Québec,,Tél.: 450-430-5572, Canada,
129,12,IGA - Marché Montée Gagnon inc.,50 Montée Gagnon,Bois-des-Filions,Québec,,Tél.: 450-621-2266, Canada,
130,12,IGA - Magasin Coop de Bonaventure,168 Grand Pré,Bonaventure,Québec,,Tél.: 418-534-2020, Canada,
131,12,IGA - Marché Castonguay inc.,22 St-Joseph,Bromptonville,Québec,,Tél.: 819-846-2728, Canada,
132,12,IGA - Marché Mario Millord,3260 Lapinière,Brossard,Québec,J4Z 3L8,Tél.: 450-445-1224, Canada,
133,12,IGA - Marché d'Alimentation Roger Latendresse inc.,8200 Boulevard Tachereau,Brossard,Québec,J4X 2S6,Tél.: 450-923-1012, Canada,
134,12,IGA - Boucherie des Sources,1221 Rue Charles-Albanel,Cap Rouge,Québec,,Tél.: 418-872-4382, Canada,
135,12,IGA - Extra Cap de la Madeleine,645 Thibault,Cap-de-la-Madeleine,Québec,,Tél.: 819-376-1551, Canada,
136,12,IGA - Marché Lambert et frères inc.,3500 Boulevard Fréchette,Chambly,Québec,,Tél.: 450-447-1983, Canada,
137,12,IGA - Coop C. Chandler,9 Boulevard René-Levesque,Chandler,Québec,,Tél.: 418-689-6862, Canada,
138,12,IGA - La Coop. des Consom. de Charlesbourg,1233 Boulevard Louis-XIV,Charlesbourg,Québec,,Tél.: 418-628-2525, Canada,
139,12,IGA - Alimentation A.D.R.,795 Boulevard du Lac,Charlesbourg,Québec,,Tél.: 418-849-3674, Canada,
140,12,IGA - Extra,4250 1e Avenue,Charlesbourg,Québec,,Tél.: 418-627-0660, Canada,
141,12,IGA - Alimentation Yvon Ratté inc.(Orsainville),17010 Boulevard Henri Bourassa,Charlesbourg,Québec,,Tél.: 418-628-2511, Canada,
142,12,IGA - Extra Chateauguay,90 Boulevard Anjou,Châteauguay,Québec,,Tél.: 450-692-3446, Canada,
143,12,IGA - Famille Charles,1716 Route 105 Nord,Chelsea,Québec,,Tél.: 819-459-2326, Canada,
144,12,IGA - Larochelle,466 3e Rue,Chibougamau,Québec,,Tél.: 418-748-2682, Canada,
145,12,IGA - Alimentation Yvon Haché,1225 des Champs-Élysées,Chicoutimi,Québec,,Tél.: 418-549-9751, Canada,
146,12,IGA - Super Marché Robert Martin,625 Boulevard Ste-Genevieve,Chicoutimi,Québec,,Tél.: 418-545-7680, Canada,
147,12,IGA - Marché Gravel J.R. inc.,110 Boulevard Notre-Dame,Clermont,Québec,,Tél.: 418-439-3922, Canada,
148,12,IGA - Coaticook,265 Child,Coaticook,Québec,,Tél.: 819-849-6226, Canada,
149,12,IGA - Supermarché IGA,5499 Marie-Victorin,Contrecoeur,Québec,,Tél.: 450-587-5648, Canada,
150,12,IGA - Gestion Gilles Genest inc.,115 Rue Principale Est,Cookshire,Québec,,Tél.: 819-875-5455, Canada,
151,12,IGA - Alimentation Shaidman et Pagano inc.,5800 Boulevard Cavendish,Côte St-Luc,Québec,,Tél.: 514-482-4710, Canada,
152,12,IGA - L.A. Daigneault et fils ltée,1531 Rue Sud,Cowansville,Québec,,Tél.: 450-266-1646, Canada,
153,12,IGA - Marché d'alimentation Crevier,850 Chemin Oka,Deux-Montagnes,Québec,,Tél.: 450-473-6280, Canada,
154,12,IGA - Marché B. Gagnon,125 Rue Champoux,Disraeli,Québec,,Tél.: 418-449-4218, Canada,
155,12,IGA - J.-M. Tremblay et fils inc.,134 Boulevard St-Michel,Dolbeau Mistassini,Québec,,Tél.: 418-276-3227, Canada,
156,12,IGA - Supermarché D.D.O,11800 Salaberry,Dollard des Ormeaux,Québec,,Tél.: 514-685-5252, Canada,
157,12,IGA - Alimentation Famille Martin inc.,1125 Promenade Hyman,Dollard des Ormeaux,Québec,,Tél.: 514-684-1970, Canada,
158,12,IGA - Marché Clément des Forges inc.,1910 Boulevard St-Joseph,Drummondville,Québec,,Tél.: 819-477-7700, Canada,
159,12,IGA - Groupe Epicier Angus,150 Angus-Sud,East Angus,Québec,,Tél.: 819-832-2449, Canada,
160,12,IGA - Marché Gilbert enrg.,160 Rue Beaudoin,East Broughton,Québec,,Tél.: 418-427-3252, Canada,
161,12,IGA - Le Groupe René Laliberté inc.,3557 Boulevard Dagenais Ouest,Fabreville,Québec,,Tél.: 450-628-2420, Canada,
162,12,IGA - Marché Larivé inc.,999 Rue Principale Est,Farnham,Québec,,Tél.: 450-293-4210, Canada,
163,12,IGA - Marché Central Ferme-Neuve inc.,268 9e Avenue,Ferme-Neuve,Québec,,Tél.: 819-587-3139, Canada,
164,12,IGA - Couture,2240 Rue King Est,Fleurimont,Québec,,Tél.: 819-566-8282, Canada,
165,12,IGA - Richard Cronier,39-A Montée Sandy Beach,Gaspé,Québec,,Tél.: 418-368-5211, Canada,
166,12,IGA - Extra Famille Charles,455 Boulevard Greber,Gatineau,Québec,,Tél.: 819-243-0011, Canada,
167,12,IGA - Extra,720 Montée Paiement,Gatineau,Québec,,Tél.: 819-643-3384, Canada,
168,12,IGA - Supermarché Serge Fleurant inc,585 Rue St-Hubert,Granby,Québec,,Tél.: 450-777-0898, Canada,
169,12,IGA - Marché IGA Lefebvre,40 Évangéline,Granby,Québec,,Tél.: 450-378-4447, Canada,
170,12,IGA - Gaétan Bertrand,143 Grande-Allé Est,Grande-Rivière,Québec,,Tél.: 418-385-3494, Canada,
171,12,IGA - Alimentation Gauthier et Frères,850 7e Avenue,Grand-Mère,Québec,,Tél.: 819-533-4553, Canada,
172,12,IGA Extra-Marché du Faubourg Greenfield Park Inc,300 Rue Auguste,Greenfield Park,Québec,J4V 3R4 ,Tél.: 450-656-7055, Canada,
173,12,IGA - Poirier et Fils Ltée,484 Rue Principale,Hudson,Québec,,Tél.: 450-458-5573, Canada,
174,12,IGA - Henri Laflamme inc,425 St-Joseph,Hull,Québec,,Tél.: 819-770-9131, Canada,
175,12,IGA - Marché Robert Plouffe inc.,2195 Chemin Ridge,Huntingdon,Québec,,Tél.: 450-264-2909, Canada,
176,12,IGA - Supermarché Laplante inc.,420 2e Avenue,Iberville,Québec,,Tél.: 450-347-6411, Canada,
177,12,IGA - Marché Laplante,435 9e Avenue,Iberville,Québec,,Tél.: 450-358-2804, Canada,
178,12,IGA - Supermarché St-Raphaël inc.,640 Boulevard Jacques Bizard,Île Bizard,Québec,,Tél.: 514-620-4443, Canada,
179,12,IGA - Marché Louise Ménard inc.,30 Rue Place du Commerce,Île des Soeurs,Québec,,Tél.: 514-362-6330, Canada,
180,12,IGA - Supermarché IGA Don Quichote,100 Boulevard Don Quichotte,Île Perrot,Québec,,Tél.: 514-453-3027, Canada,
181,12,IGA - Marché Guy Bergeron inc.,2580 St-Dominique,Jonquière,Québec,,Tél.: 418-547-1170, Canada,
182,12,IGA - Kirkland,3701 Boulevard St-Charles,Kirkland,Québec,,Tél.: 514-630-4700, Canada,
183,12,IGA - Alimentation Christian Verreault,150 6e Rue,La Baie,Québec,,Tél.: 418-544-7377, Canada,
184,12,IGA - Coop. La Pocatière,161 Route 230 ouest,La Pocatière,Québec,,Tél.: 418-856-2667, Canada,
185,12,IGA - Plourde,77 2e Rue est Plaza La Sarre,La Sarre,Québec,,Tél.: 819-333-5598, Canada,
186,12,IGA - Supermarché Arcand (1993) Inc.,547 St-Louis,La Tuque,Québec,,Tél.: 819-523-5968, Canada,
187,12,IGA - Knowlton,"461 Chemin Knowlton Sortie 90, AutoRoute 10",Lac Brôme,Québec,,Tél.: 450-243-6692, Canada,
188,12,IGA - Supermarché Crevier inc.,325 Montée des Pionniers,Lachenaie,Québec,,Tél.: 450-582-2271, Canada,
189,12,IGA - Extra Vallée,490 28e Avenue,Lachine,Québec,,Tél.: 514-634-0124, Canada,
190,12,IGA - Supermarché IGA,735 Notre-Dame,Lachine,Québec,,Tél.: 514-634-7249, Canada,
191,12,IGA - Supermarché J.Desjardins inc.,465 Avenue Béthany,Lachute,Québec,,Tél.: 450-562-6882, Canada,
192,12,IGA - Marché H. Dauphinais inc.,60 Route 202,Lacolle,Québec,,Tél.: 450-246-3037, Canada,
193,12,IGA - Marché IGA Lord de Lafontaine,2012 St-Georges,Lafontaine,Québec,,Tél.: 450-565-8890, Canada,
194,12,IGA - Famille P. Crégheur,5671 Laurier,LaPlaine,Québec,,Tél.: 450-477-4077, Canada,
195,12,IGA - Alimentation J.G.D. inc.,975 Boulevard Tascherau,Laprairie,Québec,,Tél.: 450-659-1611, Canada,
196,12,IGA - Marché d'alimentation Beck inc.,8130 Champlain,Lasalle,Québec,,Tél.: 514-364-4777, Canada,
197,12,IGA - Supermarché Crevier L'Assomption inc.,860 Boulevard L'Ange-Gardien Nord,L'Assomption,Québec,,Tél.: 450-589-5897, Canada,
198,12,IGA - Supermarché Boulevard le Carrefour inc.,2137 Boulevard Labelle,Laval,Québec,,Tél.: 450-682-3660, Canada,
199,12,IGA - Marché Hébert Sénécal inc.,5895 Val-des-Brises,Laval,Québec,,Tél.: 450-665-4441, Canada,
200,12,IGA - Marché Duchemin,515 Curé Labelle,Laval,Québec,,Tél.: 450-687-1515, Canada,
201,12,IGA - Alimentation St-Denis inc.,307 Boulevard Cartier Ouest,Laval,Québec,,Tél.: 450-669-7501, Canada,
202,12,IGA - Épicerie Quintal et Frères (1978) inc.,4805 Boulevard Arthur-Sauvé,Laval,Québec,,Tél.: 450-627-3123, Canada,
203,12,IGA - Supermarché IGA Crevier Lavaltrie,81 Chemin Lavaltrie,Lavaltrie,Québec,,Tél.: 450-586-0115, Canada,
204,12,IGA - Extra Lebourgneuf,5555 Boulevard des Gradins,Lebourgneuf,Québec,,Tél.: 418-622-5262, Canada,
205,12,IGA - Extra Les Saules,5005 Boulevard L'Orimière,Les Saules,Québec,,Tél.: 418-877-3922, Canada,
206,12,IGA - Marché S. Larochelle(St-David de l'Auberivière),3950 Boulevard de la Rive-Sud,Lévis,Québec,,Tél.: 418-833-8822, Canada,
207,12,IGA - Extra Lévis,53 Boulevard Kennedy,Lévis,Québec,,Tél.: 418-837-1551, Canada,
208,12,IGA - Extra,825 St-Laurent Ouest,Longueuil,Québec,J4K 2V1,Tél.: 450-677-5238, Canada,
209,12,"IGA - Les marchés Lacoste, Hébert",1401 Chemin de Chambly,Longueuil,Québec,J4J 3X6,Tél.: 450-677-2869, Canada,
210,12,IGA - Supermarché DJS Cousineau inc.,1732 Boulevard Marie-Victorin,Longueuil,Québec,J4G 1A5,Tél.: 450-646-4302, Canada,
211,12,IGA - Coopérative de Lorretteville,"250 Rue Louis-IX, suite 250",Loretteville,Québec,,Tél.: 418-842-2341, Canada,
212,12,IGA - Boutin,14 Rue Notre-Dame,Lorrainville,Québec,,Tél.: 819-625-2115, Canada,
213,12,IGA - Marché d'alimentation Diane Rodrigue inc.,714 Boulevard St-Laurent Ouest,Louiseville,Québec,,Tél.: 819-228-5818, Canada,
214,12,IGA - Marché Gazaille,231 Rue Sherbrooke,Magog,Québec,,Tél.: 819-868-1122, Canada,
215,12,IGA - Magasin Coop de Maria,524 Boulevard Perron,Maria,Québec,,Tél.: 418-759-3440, Canada,
216,12,IGA - Extra,65 Montée Masson,Mascouche,Québec,,Tél.: 450-474-2444, Canada,
217,12,IGA - Cotret Brazeau,1205 de Neuville,Masson-Angers,Québec,,Tél.: 819-986-3825, Canada,
218,12,IGA - Marché Bellavance,551 Avenue du Phare Est,Matane,Québec,,Tél.: 418-562-7111, Canada,
219,12,IGA - Marché Duchemin et Lacas inc.,927 Rue St-Jean-Baptiste,Mercier,Québec,,Tél.: 450-691-7647, Canada,
220,12,IGA - Alimentation Charles Regnier inc.,12 St-Antoine,Metabetchouan,Québec,,Tél.: 418-349-2266, Canada,
221,12,IGA - Alimentation De la Mitis,1330 Boulevard Gaboury,Mont-Joli,Québec,,Tél.: 418-775-8915, Canada,
222,12,IGA - Marché Leblanc inc.,101 Rue Hébert,Mont-Laurier,Québec,,Tél.: 819-623-3200, Canada,
223,12,IGA - Magasin Coop de Montmagny,70 Boulevard Taché Ouest,Montmagny,Québec,,Tél.: 418-248-1230, Canada,
224,12,IGA - Alimentation J.P.J Martin inc.,"11130 Meighen, Pierrefonds",Montréal ,Québec,,Tél.: 514-684-2807, Canada,
225,12,IGA - Supermarché Déziel inc.,1155 Jarry Est,Montréal ,Québec,H2P 1W9,Tél.: 514-725-9323, Canada,
226,12,Marché Louise Ménard (Complexe Desjardins),"150 rue Sainte-Catherine O,",Montréal,Québec,H2X 3Y2,,,
227,12,Place Alexis Nihon,1500 av Atwater,Montréal,Québec,H3Z 1X5,,,
228,12,IGA - Marché Panelli inc.,2340 Boulevard Rosemont,Montréal ,Québec,H2G 1T7,Tél.: 514-279-3138, Canada,
229,12,IGA - Supermarché Etop inc.,2600 Mullins,Montréal ,Québec,,Tél.: 514-932-8155, Canada,
230,12,IGA - Alimentation Claude Sauro,2600 Ontario Est,Montréal ,Québec,H2K 4K4,Tél.: 514-525-4281, Canada,
231,12,Super Marché Étop Inc,2600 rue Mullins,Montréal,Québec,H3K 1P2,,,
232,12,IGA - Supermarché Pierre Leduc inc.,2820 Rue de Salaberry,Montréal ,Québec,H3M 1L3,Tél.: 514-745-1640, Canada,
233,12,Marché Louise Ménard Inc,30 rue Place du Commerce,Verdun,Québec,H3E 1V7,,,
234,12,IGA - Supermarché Toppetta inc.,3964 Rue Notre-Dame Ouest,Montréal ,Québec,H4C 1R1 ,Tél.: 514-937-7722, Canada,
235,12,Marché d'Alimentation Champagne,4500 rue Wellington,Verdun,Québec,H4G 1W7,,,
236,12,IGA - Les Marchés Pepin inc.,345 Sir Wilfrid Laurier,Mont-St-Hilaire,Québec,,Tél.: 450-464-2581, Canada,
237,12,IGA - New Richmond,120 Boulevard Perron,New Richmond,Québec,,Tél.: 418-392-4237, Canada,
238,12,IGA - Supermarché Clément Nicolet inc.,2000 Boulevard Louis-Fréchette,Nicolet,Québec,,Tél.: 819-293-6937, Canada,
239,12,IGA - Gestion Tremblay & Leboeuf inc.,1130 St-Cyrille,Normandin,Québec,,Tél.: 418-274-2009, Canada,
240,12,IGA - Supermarché Crevier inc. (Joliette),17 Rue Gauthier Nord,Notre-Dame-des-Prairies,Québec,,Tél.: 450-759-2554, Canada,
241,12,IGA - Les marchés Pilon McKinnon,4 Rue Bridge,Ormstown,Québec,,Tél.: 450-829-3322, Canada,
242,12,IGA - Paspebiac,111 Gérard D. Lévesque,Pasbébiac,Québec,,Tél.: 418-752-2288, Canada,
243,12,IGA - Magasin Coop de Plessisville,1971 Rue Bilodeau,Plessisville,Québec,,Tél.: 819-362-6357, Canada,
244,12,IGA - Leblanc P.A.T,13155 Sherbrooke Est,Pointe-aux-Trembles,Québec,,Tél.: 514-498-2220, Canada,
245,12,IGA - Supermarché J.C. Bédard Ltée,169 Du Pont,Pont-Rouge,Québec,,Tél.: 418-873-2415, Canada,
246,12,IGA - Coop. des Cons. de Lorette,2300 Boulevard Père Lellièvre,Québec,Québec,,Tél.: 418-682-0254, Canada,
247,12,IGA - Louis-Eugène Rhéaume inc.,422 Boulevard Jacques Bédard,Québec,Québec,,Tél.: 418-849-4416, Canada,
248,12,IGA - Poulin,1035 Boulevard Wilfrid Hamel,Québec,Québec,,Tél.: 418-683-4775, Canada,
249,12,IGA - Deschênes,255 Chemin Ste-Foy,Québec,Québec,,Tél.: 418-524-9890, Canada,
250,12,IGA - Extra Chouinard & Fils inc.,10505 Boulevard St-Anne,Québec,Québec,,Tél.: 418-827-2828, Canada,
251,12,IGA - Super-Marché Pierre Jobidon de Limoilou inc.,825 4e Avenue,Québec,Québec,,Tél.: 418-648-2633, Canada,
252,12,IGA - Alimentation Gareau inc.,3450 Queen,Rawdon,Québec,,Tél.: 450-834-2633, Canada,
253,12,IGA - Supermarché Crevier inc.,200 boul Brien,Repentigny,Québec,,Tél.: 450-582-0200, Canada,
254,12,IGA - Supermarché Crevier inc.,1315 Boulevard Iberville no.110,Repentigny,Québec,,Tél.: 450-654-0105, Canada,
255,12,IGA - Marché Michel Lemieux inc.,450 Boulevard Richelieu,Richelieu,Québec,,Tél.: 450-658-1831, Canada,
256,12,IGA - Épicerie R. Cadieux et Fils inc.,461 Grande Ligne,Rigaud,Québec,,Tél.: 450-451-5318, Canada,
257,12,IGA - La coop des consommateurs de Rimouski,375 Boulevard Jessop,Rimouski,Québec,,Tél.: 418-723-1982, Canada,
258,12,IGA - Extra,"395 Avenue Sirois, C.P.728",Rimouski,Québec,,Tél.: 418-724-2244, Canada,
259,12,IGA - Supermarché Bourgault et Sanzone inc.,12285 Boulevard Rodolphe-Forget,Rivière-des-Prairies,Québec,,Tél.: 514-648-2355, Canada,
260,12,IGA - Extra Rivière du Loup,254 Hotel de Ville,Rivière-du-Loup,Québec,,Tél.: 418-862-7861, Canada,
261,12,IGA - Super Marché Roberval inc.,1221 Boulevard Marcotte,Roberval,Québec,,Tél.: 418-275-4692, Canada,
262,12,IGA - Marché Gérald Parenteau,458 Avenue Larivière,Rouyn-Noranda,Québec,,Tél.: 819-762-8174, Canada,
263,12,IGA - Marché Giroux,100 Rue du terminus Ouest,Rouyn-Noranda,Québec,,Tél.: 819-762-6402, Canada,
264,12,IGA - Roy,240 Avenue Larivière,Rouyn-Noranda,Québec,,Tél.: 819-762-5783, Canada,
265,12,IGA - Supermarché Mellon inc.,2085 Boulevard Mellon,Saguenay,Québec,,Tél.: 418-548-7557, Canada,
266,12,IGA - Super Marché Robert Pilon Ltée,1380 Boulevard Monseigneur Langlois,Salaberry-de-Valleyfield,Québec,,Tél.: 450-373-0251, Canada,
267,12,IGA - Supermarché Berger inc.,50 Boulevard Joubert Est,Sayabec,Québec,,Tél.: 418-536-5418, Canada,
268,12,IGA - Bilodeau,760 10e Avenue,Senneterre,Québec,,Tél.: 819-737-2232, Canada,
269,12,IGA - Marché Labrie et Landry inc.,1010 Boulevard Laure,Sept-Îles,Québec,,Tél.: 418-962-7797, Canada,
270,12,IGA - Supermarché IGA Extra Shawinigan,1500 Rue Trudel,Shawinigan,Québec,,Tél.: 819-536-4141, Canada,
271,12,IGA - Marché Bélisle Shawinigan-Sud inc.,2105 5e Avenue,Shawinigan,Québec,,Tél.: 819-537-6997, Canada,
272,12,IGA - Supermarché IGA,6185 Chemin de Saint-Élie,Sherbrooke,Québec,,Tél.: 819-566-8555, Canada,
273,12,IGA - Extra,775 Rue Galt ouest,Sherbrooke,Québec,,Tél.: 819-564-8686, Canada,
274,12,IGA - Extra Sherbrooke,3950 King Ouest,Sherbrooke,Québec,,Tél.: 819-563-5172, Canada,
275,12,IGA - Alimentation Raymond Rousseau inc.,1580 Chemin St-Louis,Sillery,Québec,,Tél.: 418-527-7758, Canada,
276,12,IGA - Marché André Tellier inc.,411 Boulevard Poliquin,Sorel,Québec,,Tél.: 450-743-7932, Canada,
277,12,IGA - Michel Fournier,1145 Rue du Centenaire,Saint-Agapit,Québec,,Tél.: 418-888-4266, Canada,
278,12,IGA - Les Entreprises Raphaël Picard Ltée,525 Rue Principale,Saint-Amable,Québec,,Tél.: 450-649-2476, Canada,
279,12,IGA - Magasin Coop de Saint-Anselme,70 Rue Principale,Saint-Anselme,Québec,,Tél.: 418-885-4461, Canada,
280,12,IGA - Provision Rock Island,14 Chemin de Fairfax,Stanstead,Québec,,Tél.: 819-876-7262, Canada,
281,12,IGA - Gaétan Boucher,405 Route 273,Saint-Apollinaire,Québec,,Tél.: 418-881-3112, Canada,
282,12,IGA - Marché Lambert et Frères inc.,2400 Boulevard du Millénaire,St-Basile le Grand,Québec,,Tél.: 450-441-3800, Canada,
283,12,IGA - Supermarché Lambert inc.,23 Boulevard Seigneurial Ouest,Saint-Bruno,Québec,,Tél.: 450-653-4466, Canada,
284,12,IGA - Marché St-Canut,13905 St-Simon,Saint-Canut,Québec,,Tél.: 450-431-3244, Canada,
285,12,IGA - St-Césaire,2020 Route 112,Saint-Césaire,Québec,,Tél.: 450-469-3536, Canada,
286,12,IGA - Crevier,655 de la Visitation,Saint-Charles-Borromée,Québec,,Tél.: 450-752-1441, Canada,
287,12,IGA - Supermarché Lambert inc.,400 RTE-132,Saint-Constant,Québec,,Tél.: 450-632-2778, Canada,
288,12,IGA - Marché Au Chalet (1978) inc.,1300 Boulevard Ste-Adèle,Sainte-Adèle,Québec,,Tél.: 450-229-4256, Canada,
289,12,IGA - Extra Ste-Anne-des-Monts,"6 Boulevard Ste-Anne, c.p.787",Sainte-Anne-des-Monts,Québec,,Tél.: 418-763-5758, Canada,
290,12,IGA - Boucherie des Sources Ste-Catherine inc.,4540 Route Fossambault,Sainte-Catherine de la Jacques-Cartier,Québec,,Tél.: 418-875-1608, Canada,
291,12,IGA - Marché d'alimentation Crevier inc.,550 Autoroute Chomedey,Sainte-Dorothée,Québec,,Tél.: 450-689-3131, Canada,
292,12,IGA - La Coop des consommateurs de Ste-Foy,999 Rue Bourgogne,Sainte-Foy,Québec,,Tél.: 418-658-6472, Canada,
293,12,IGA - Marché du Faubourg Ste-Julie inc.,2055 Rue Principale,Sainte-Julie,Québec,,Tél.: 450-649-4078, Canada,
294,12,IGA - Coop de Ste-Justine,188 Route 204 c.p.39,Sainte-Justine,Québec,,Tél.: 418-383-3024, Canada,
295,12,IGA - Extra Boucherie Veilleux inc.,1000 Boulevard Vachon Nord,Sainte-Marie,Québec,,Tél.: 418-386-5413, Canada,
296,12,IGA - Marché Primeau & fils inc.,305 St-Joseph,Sainte-Martine,Québec,,Tél.: 450-427-7438, Canada,
297,12,IGA - Cté L'Islet Magasin Coop de Ste-Perpétue,358 Rue Principale,Sainte-Perpetue,Québec,,Tél.: 418-359-2221, Canada,
298,12,IGA - Marché Roméo Roy et Fils inc.,108 RTE-108 Est,Saint-Éphrem-De-Beauce,Québec,,Tél.: 418-484-2085, Canada,
299,12,IGA - Marché des Oiseaux inc.,380 Boulevard Curé-labelle,Sainte-Rose,Québec,,Tél.: 450-963-1072, Canada,
300,12,IGA - Supermarché L. & R. Daigle inc.,220 St-Charles,Sainte-Thérèse,Québec,,Tél.: 450-435-1370, Canada,
301,12,IGA - Supermarché L. & R. Daigle Inc,450 Blainville Est,Sainte-Thérèse,Québec,,Tél.: 450-435-5500, Canada,
302,12,IGA - Marché d'alimentation Crevier,299 Arthur-Sauvé,Saint-Eustache,Québec,,Tél.: 450-472-1558, Canada,
303,12,IGA - R.Girard & Fils ltée,1199 Boulevard St-Félicien,Saint-Félicien,Québec,,Tél.: 418-679-1304, Canada,
304,12,IGA - Roger Rainville et Fils inc.,5300 Rue Principale,Saint-Felix-de-Valois,Québec,,Tél.: 450-889-4747, Canada,
305,12,IGA - Magasin Coop St-Gédéon,105 Boulevard Canam Sud c.p.40,Saint-Gédéon,Québec,,Tél.: 418-582-3125, Canada,
306,12,IGA - Supermarché Rodrigue inc.,1950 6e Avenue,Saint-Georges de Beauce,Québec,,Tél.: 418-228-2375, Canada,
307,12,IGA - Extra St-Georges de Beauce,8980 Boulevard Lacroix,Saint-Georges de Beauce,Québec,,Tél.: 418-228-2776, Canada,
308,12,IGA - Alimentation N.G.R. et Fils inc.,59 Route Campagna,Saint-Henri-de-Levis,Québec,,Tél.: 418-882-5375, Canada,
309,12,IGA - Alimentation St-Onge inc.,972 Chemin des Hauteurs,Saint-Hippolyte,Québec,,Tél.: 450-224-5179, Canada,
310,12,IGA - Marché Dubreuil-Veillette inc.,6250 Boulevard Cousineau,Saint-Hubert,Québec,J3Y 8X9,Tél.: 450-462-4420, Canada,
311,12,IGA - Alimentation Sogesco inc.,"3000, Laframboise",Saint-Hyacinthe,Québec,J2S 4Z4,Tél.: 450-773-7582, Canada,
312,12,IGA - Supermarché Guy Jodoin,"2260, St-Charles",Saint-Hyacinthe,Québec,J2T 1V5,Tél.: 450-774-4189, Canada,
313,12,IGA - Famille Jodoin,"5445, Boul. Laurier Ouest",Saint-Hyacinthe,Québec,J2S 3V6,Tél.: 450-773-0333, Canada,
314,12,IGA - Marché St-Janvier,13381 Boulevard Curé-Labelle,Saint-Janvier,Québec,,Tél.: 450-971-7881, Canada,
315,12,IGA - Supermarché Pépin,1015 des Lilas,Saint-Jean-Chrysostome,Québec,,Tél.: 418-834-8077, Canada,
316,12,"IGA - Magasin Coop ""La Paix"" de St-Jean Port-Joli",321 Route de l'Église,Saint-Jean-Port-Joli,Québec,,Tél.: 418-598-3385, Canada,
317,12,IGA - Gladu,400 Boulevard du Séminaire,Saint-Jean-sur-Richelieu,Québec,J3B 5L2,Tél.: 450-349-2878, Canada,
318,12,IGA - Marché Lord et associés,1005 Grand-Héron,Saint-Jérôme,Québec,,Tél.: 450-438-5214, Canada,
319,12,IGA - Marché Pierre Jobidon,1021 Avenue du Palais,Saint-Joseph-de-Beauce,Québec,,Tél.: 418-397-5213, Canada,
320,12,IGA - Marché Lamoureux,3765 Chemin Oka,Saint-Joseph-du-Lac,Québec,,Tél.: 450-491-8228, Canada,
321,12,IGA - Tremblant,412 Route 117,Saint-Jovite,Québec,,Tél.: 819-681-0330, Canada,
322,12,IGA - St-Lamber-de-Lauzon,1234 Rue Du Pont,Saint-Lambert,Québec,,Tél.: 418-889-9723, Canada,
323,12,IGA - Marché Louise Ménard (Préville) inc.,299 Boulevard Sir Wilfrid-Laurier,Saint-Lambert,Québec,,Tél.: 450-923-9399, Canada,
324,12,IGA - Marché Louise Ménard inc.,371 Avenue Victoria,Saint-Lambert,Québec,,Tél.: 450-466-3880, Canada,
325,12,IGA - Marché Duchemin et Frères inc.,1947 Boulevard Keller,Saint-Laurent,Québec,,Tél.: 514-336-8085, Canada,
326,12,IGA - Poirier et Fils Ltée,1869 Chemin Angélique,Saint-Lazare,Québec,,Tél.: 450-455-6165, Canada,
327,12,IGA - Extra Marché Tellier,5000 Jean-Talon Est,Saint-Léonard,Québec,,Tél.: 514-728-3535, Canada,
328,12,IGA - Extra,7150 Langelier,Saint-Léonard,Québec,,Tél.: 514-254-5454, Canada,
329,12,IGA - Marché Perreault Gélinas inc.,318 Boulevard Sait-Luc,Saint-Luc,Québec,,Tél.: 450-359-4110, Canada,
330,12,IGA - Les entreprises Clément Ruel (2000) inc.,4565 Boulevard St-Joseph,Saint-Nicephore,Québec,,Tél.: 819-472-1107, Canada,
331,12,IGA - Supermarché Imbeault inc.,600 Route 116 suite 200,Saint-Nicolas,Québec,,Tél.: 418-831-5400, Canada,
332,12,IGA - Les entreprises B.J.T. Boulianne inc.,335 Chemin du Hibou,Stoneham,Québec,,Tél.: 418-848-2637, Canada,
333,12,IGA - Super Marché L. D. inc.,616 Blondeau,Saint-Pascal de Kamouraska,Québec,,Tél.: 418-492-2902, Canada,
334,12,IGA - Épicerie J.-N. Mayrand inc.,181 Marie-Victorin,Saint-Pierre-les Becquets,Québec,,Tél.: 819-263-2196, Canada,
335,12,IGA - Marché Favreau ltée,725 Notre-Dame,Saint-Rémi,Québec,,Tél.: 450-454-2262, Canada,
336,12,IGA - Extra St-Romuald,1060 De la Rive sud,Saint-Romuald,Québec,,Tél.: 418-834-3811, Canada,
337,12,IGA - Marché St-Tite Inc,510 Du Moulin,Saint-Tite,Québec,,Tél.: 418-365-3886, Canada,
338,12,IGA - Alimentation Lumi inc.,4411 de la Concorde,Saint-Vincent-de-Paul,Québec,,Tél.: 450-664-3444, Canada,
339,12,IGA - Marché d'alimentation Thibault,675 Boulevard des Seigneurs,Terrebonne,Québec,,Tél.: 450-492-5580, Canada,
340,12,IGA - Marché Jacques Thibault,2120 Boulevard Gascon,Terrebonne,Québec,,Tél.: 450-964-2050, Canada,
341,12,IGA - Marché St-Pierre et Fils inc.,780 Boulevard Frontenac Est,Thetford Mines,Québec,,Tél.: 418-335-6222, Canada,
342,12,IGA - Marché L. et J. Paquette inc.,100 Route Marie-Victorin,Tracy,Québec,,Tél.: 450-742-2419, Canada,
343,12,IGA - Supermarché Jean XXIII,6060 Boulevard Jean XXIII,Trois Rivières,Québec,,Tél.: 819-374-6060, Canada,
344,12,IGA - Extra Marché Paquette,3925 Boulevard des Forges,Trois Rivières,Québec,,Tél.: 819-379-2397, Canada,
345,12,IGA - Ste-Marguerite,1305 Boulevard Ste-Marguerite,Trois Rivières,Québec,,Tél.: 819-379-6622, Canada,
346,12,IGA - Marché Gaouette & Fils inc.,675 Rue de la Montagne,Valcourt,Québec,,Tél.: 450-532-6090, Canada,
347,12,IGA - Famille Pelletier Centre-Ville,1117 8e Rue,Val-d’Or,Québec,,Tél.: 819-825-6608, Canada,
348,12,IGA - Famille Pelletier Carrefour,1801 3e Avenue,Val-d’Or,Québec,,Tél.: 819-874-7741, Canada,
349,12,IGA - Supermarché du Carrefour inc.,1777 Route 132,Varennes,Québec,,Tél.: 450-929-0405, Canada,
350,12,IGA - Supermarché Pierre Patry Extra,585 Avenue St-Charles,Vaudreuil,Québec,,Tél.: 450-424-3549, Canada,
351,12,IGA - Supermarché Jacques Lefebvre inc.,4500 Wellington,Verdun,Québec,,Tél.: 514-766-7540, Canada,
352,12,IGA - Gérard Champagne Ltée,5144 Avenue Bannantyne,Verdun,Québec,,Tél.: 514-766-3536, Canada,
353,12,IGA - Supermarché IGA Raymond Martin,325 Boulevard des Bois-Francs Nord,Victoriaville,Québec,,Tél.: 819-752-9797, Canada,
354,12,IGA - Marché IGA Bellevue,560 Boulevard des Bois-francs Sud,Victoriaville,Québec,,Tél.: 819-357-2241, Canada,
355,12,IGA - Marché A. Desrochers inc.,10 Centre sportif,Warwick,Québec,,Tél.: 819-358-4950, Canada,
356,12,IGA - Alexis-Nihon,1500 Rue Atwater,Westmount,Québec,,Tél.: 514-933-0995, Canada,
357,14,Le Jardin Mobile,"625, boul. Lebourgneuf",Québec,Québec,G2J 1C3,418-634-5551, Canada,
358,14,Le Jardin Mobile,"1191, avenue Cartier",Québec,Québec,G1R 2S9,418-529-5674, Canada,
359,14,Le Jardin Mobile,"3440, rue de la Pérade",Sainte-Foy,Québec,G1X 2L7,418-657-7717, Canada,
360,14,Le Jardin Mobile,"2500, chemin Quatre-Bourgeois",Sainte-Foy,Québec,G1V 4P9,418-653-2428, Canada,
361,14,Le Jardin Mobile,930 rue Principale Ouest,Magog,Québec,J1X 2B6,819 843-4419, Canada,
362,14,Le Jardin Mobile,777 rue King Est,Sherbrooke,Québec,J1G 1C6,819 821-2318, Canada,
363,14,Le Jardin Mobile,"50, boul. Jacques-Cartier Nord",Sherbrooke,Québec,J1J 2Z8,819 823-7646, Canada,
364,14,Le Jardin Mobile,"3960, boul. Des Forges",Trois-Rivières,Québec,G8Y 1V7,819 372-9730, Canada,
365,14,Le Jardin Mobile,"794, Principale",Granby,Québec,J2G 2Y7,450 375-3941, Canada,
366,14,Le Jardin Mobile,"252, Rue Denison Est",Granby,Québec,J2H 2R6,450 375-3941 ?, Canada,
367,14,Le Jardin Mobile,"2000, boulevard Talbot",Chicoutimi,Québec,G7H 7Y2,418-698-0249, Canada,
368,29,Marchés Tau,"4238, rue St-Denis",Montréal ,Québec,H2J 2K8,Tel.: (514) 843-4420, Canada,
369,29,Marchés Tau,"7373, boul. Langelier",Saint-Léonard,Québec,H1S 1V7,Tel.: (514) 787-0077, Canada,
370,29,Marchés Tau,"6845, boul. Tachereau",Brossard,Québec,J4Z 1A7,Tel.: (450) 443-9922, Canada,
371,29,Marchés Tau,"3216, boul. St-Martin Ouest",Laval,Québec,H7T 1A1,Tel.: (450) 978-5533, Canada,
372,29,Marchés Tau,2335 Autoroute Transcanadienne,Pointe-Claire,Québec,H9R 5Z5,Tel.: (514) 695-0828, Canada,
373,33,MOURELATOS,"4957, boul. St-Jean",Pierrefonds,Québec,H9H 2A9 ,514.620.4200, Canada,
374,33,MOURELATOS,"4919, boul. Notre-Dame Ouest",Laval,Québec,H7W 1V3 ,450.681.4300, Canada,
375,33,MOURELATOS,"1855, avenue O’Brien",Ville St-Laurent,Québec,H4L 3W6 ,514.956.0100, Canada,
376,35,Rachelle Béry,"100, boulevard De Mortagne",Boucherville,Québec,,450-906-4100, Canada,
377,35,Rachelle Béry,"132, rue Principale",Granby,Québec,,450-361-6970, Canada,
378,35,Rachelle Béry,"1150, rue Ste-Catherine Est",Montréal ,Québec,H2L 2G7,514-845-7152, Canada,
379,35,Rachelle Béry,1289 boul Laird,Montréal,,H3P 2S9,,,
380,37,Supermarché PA,"1420 Rue du Fort, ",Montréal,Québec,H3H 2C4,, Canada,
381,42,William J. Walter ,1957 rue du Mont-Royal E,Montréal,,H2H 1J5,,,
382,28,Marché Guilmain,"1145, rue du Marche",Acton Vale,Québec,J0H1A0,450-546-2759, Canada,
383,28,Marché Mistook Inc.,"5532, ave du Pont Nord",Alma,Québec,G8E1V5,418-347-3194, Canada,
384,28,Club Coop Amqui,"88, rue Du Parc",Amqui,Québec,G5J2L6,418-629-1625, Canada,
385,28,Marché Richelieu Bécancour,"7805, boul. du Parc Industriel",Bécancour,Québec,G9H3N7,819-297-2675, Canada,
386,28,9169-7086 Québec Inc.,"1359, route 132, C.P. 238",Cap d'Espoir,Québec,G0C1G0,418-782-2204, Canada,
387,28,Alimentation Causap Inc.,"77, rue St-Jacques Sud",Causapscal,Québec,G0J1J0,, Canada,
388,28,Bournival & Villemure Inc.,"201, rue St-Jean-Baptiste",Charrette,Québec,G0X1E0,819-221-2100, Canada,
389,28,Eugène Lessard & Fils,"7990, Avenue Royale",Château-Richer,Québec,G0A1N0,418-824-4247, Canada,
390,28,René Lapointe & Fils Enr.,"46, rue Lapointe",Clermont,Québec,G4A1A1,, Canada,
391,28,Marché St-Emile,"2505, boul. Entrelacs",Entrelacs,Québec,J0T2E0,450-228-2383, Canada,
392,28,,"146, rue Principale C.P. 39",Huberdeau,Québec,J0T1G0,819-687-3123, Canada,
393,28,Marché Pilon,"245, rue Principale est",La Pêche,Québec,J0X2W0,819-456-3368, Canada,
394,28,Marché 424 (La Tuque) Inc.,"424, rue St-Joseph",La Tuque,Québec,G9X1M2,819-523-2768, Canada,
395,28,H.T.B. Enr.,"1385, rue Principale",Labrecque,Québec,G0W2S0,418-481-2112, Canada,
396,28,Épicerie Jean-Guy Létourneau .,"6446, Avenue Royale",L'Ange-Gardien,Québec,G0A2K0,418-822-1708, Canada,
397,28,,"40, chemin Joliette",L'Anse-Saint-Jean,Québec,,418-272-3080, Canada,
398,28,,Épicerie Amyro,L'Isle-Verte,Québec,,418-898-2052, Canada,
399,28,Marché Dunn,1 3824 boul Décarie,Montréal ,Québec,H4A 3J7,514-253-9490, Canada,
400,28,Supermarché Chauvin,,Nouvelle,Québec,,418-794-2252, Canada,
401,28,Marché St-Laurent Richelieu,,Petit Cap,Québec,,418-269-3212, Canada,
402,28,Épicerie Savage & Frères Inc.,,Pohénégamook,Québec,,418-893-5392, Canada,
403,28,Alim. J.P. Labonté & Fils,,Port Menier,Québec,,418-535-0129, Canada,
404,28,Coop de Consommation de l'Ile d'Anticosti,,Port-Daniel-Gascons,Québec,,418-396-2330, Canada,
405,28,Marché Richelieu D.T. Langlois,,Potton,Québec,,450-292-5252, Canada,
406,28,Épicerie Jacques Ducharme,,Québec,Québec,,418-661-2605, Canada,
407,28,Alimentation M.B. Inc.,,Rimouski,Québec,,418-735-2655, Canada,
408,28,Épicerie de la Seigneurie Inc.,,Rimouski,Québec,,418-736-4331, Canada,
409,28,Richelieu Brillant Bic,,Rivière-du-Loup,Québec,,418-862-8255, Canada,
410,28,Marché D'Amours Ltée,,Rivière-du-Loup,Québec,,418-868-1477, Canada,
411,28,Marché Richelieu Centre-Ville,,Sacré-Cœur- Saguenay ,Québec,,418-236-9161, Canada,
412,28,Marché Richelieu Sacré-Coeur,,Saguenay,Québec,,418-549-1655, Canada,
413,28,Alimentation Robert Blackburn Inc.,,Saguenay,Québec,,418-544-3366, Canada,
414,28,Marché Richelieu Benoît Simard,,Saint-Alexandre-de-Kamouraska,Québec,,418-495-2872, Canada,
415,28,,,Saint-Basile,Québec,,418-329-2800, Canada,
416,28,Épicerie F. Gauthier et Fils Inc.,,Saint-Bernard,Québec,,418-475-6684, Canada,
417,28,Alimentation Michou Inc.,,Saint-Casimir,Québec,,418-339-2930, Canada,
418,28,Marché Alain Thibault Inc.,,Saint-Cyprien,Québec,,418-963-2255, Canada,
419,28,,,Sainte-Anne-De-Bellevue,Québec,,514-457-5731, Canada,
420,28,J. Raymond Richard,,Sainte-Clotilde-de-Horton,Québec,,819-336-2010, Canada,
421,28,Épicerie Julien Ricard Inc.,,Sainte-Hélène-de-Bagot,Québec,,450-791-2412, Canada,
422,28,Alim. Famille Croteau Inc.,,Sainte-Hénédine,Québec,,418-935-3691, Canada,
423,28,Marché L. Fournier Inc.,,Sainte-Luce,Québec,,418-739-4944, Canada,
424,28,Épicerie C.H. Bernier & Fils Ltée,,Saint-Elzéar,Québec,,418-387-2570, Canada,
425,28,Marché d'Alimentation Vallée,,Sainte-Perpétue,Québec,,819-336-6666, Canada,
426,28,L.D. Roy Inc.,,,Québec,G0L2Z0,418-869-2171, Canada,
427,28,,"15, 7e Avenue",Saint-Fabien-De-Panet,Québec,,, Canada,
428,28,Chez Doyon & Frères Inc.,,Saint-Gédéon,Québec,,418-345-2471, Canada,
429,28,Marché Richelieu Potvin,,,Québec,G0L3L0,418-497-2284, Canada,
430,28,,"10, rue Taché Est",Saint-Isidore,Québec,,450-454-2151, Canada,
431,28,Marché J.A. Ouellet Inc.,,,Québec,J3B4K1,450-346-3036, Canada,
432,28,,"365, rue Jacques-Cartier Sud",Saint-Léon-de-Standon,Québec,,G0R4L0, Canada,
433,28,Marché Couture,,,Québec,J0L2H0,450-632-5262, Canada,
434,28,,"289, chemin Principal",Saint-Maurice,Québec,G0X2X0,819-374-3266, Canada,
435,28,Marché Richelieu Michel Mathieu,"372, route Langevin",Saint-Odilon-de-Cranbourne,Québec,G0S3A0,418-464-2563, Canada,
436,28,Marché Gaétan Dubé & FilS,"104, rue Ulric-Tessier",Saint-Ulric,Québec,G0J3H0,418-737-4590, Canada,
437,28,Marché St-Valérien,"1380, rue Principale",Saint-Valérien-de-Milton,Québec,J0H2B0,450-549-2336, Canada,
438,28,Marché Idéal (St-Zénon),"6110, rue Principale",Saint-Zénon,Québec,J0K3N0,450-884-5656, Canada,
439,28,Marché Sillery Ltée,"2485, chemin St-Louis",Sillery,Québec,G1T1R9,418-658-6215, Canada,
440,28,Marché Richelieu,"429, Route 204",Saint-Aubert,Québec,G0R2R0,418-598-6170, Canada,
441,28,Marché Richelieu,"571, route 309, C.P. 149",Val-des-Bois,Québec,J0X3C0,819-454-2277, Canada,
442,28,Marché Richelieu Perkins,"1732, route du Carrefour",Val-des-Monts,Québec,J8N7E9,819-671-2282, Canada,
443,28,Marché Venise,"231, 16e Avenue Ouest",Venise-en-Québec,Québec,J0J2K0,450-244-5562, Canada,
444,28,Mche Blanchette & Vincent,"5, rue Monseigneur-Parenteau",Yamaska,Québec,J0G1W0,450-789-2404, Canada,
445,30,MARCHÉS TRADITION,86 8e Rue,Crabtree,Québec,J0K1B0,Tél.: 450-754-2244, Canada,
446,30,MARCHÉS TRADITION,382 Rue Principale,Eastman,Québec,,Tél.: 450-297-2815, Canada,
447,30,MARCHÉS TRADITION,17 Rue Principale,Frelighsburg,Québec,,Tél.: 450-298-5202, Canada,
448,30,MARCHÉS TRADITION,504 Rue Fontière,Hemmingford,Québec,,Tél.: 450-247-2712, Canada,
449,30,MARCHÉS TRADITION,1011 Chemin Principale,Île de la Madeleine,Québec,,Tél.: 418-986-4233, Canada,
450,30,MARCHÉS TRADITION,725 Rue Principale,Lac-aux-Sables,Québec,,Tél.: 418-336-2148, Canada,
451,30,MARCHÉS TRADITION,93 7e Rue,L'Isletville,Québec,,Tél.: 418-247-5206, Canada,
452,30,MARCHÉS TRADITION,110 Rue Georges,Masson-Angers,Québec,,Tél.: 819-986-7017, Canada,
453,30,MARCHÉS TRADITION,9150 Rue Lajeunesse,Montréal ,Québec,H2M1S2,Tél.: 514-381-6511, Canada,
454,30,MARCHÉS TRADITION,4805 Rue Charleroi,Montréal ,Québec,H1H1V5,Tél.: 514-322-3135, Canada,
455,30,MARCHÉS TRADITION,9280 Rue Sherbrooke Est,Montréal ,Québec,H1L1E5,Tél.: 514-351-1252, Canada,
456,30,MARCHÉS TRADITION,8965 Boulevard St-Michel,Montréal ,Québec,H1Z3G3,Tél.: 514-321-0952, Canada,
457,30,MARCHÉS TRADITION,7609 Avenue Centrale,Montréal ,Québec,,Tél.: 514-595-9111, Canada,
458,30,MARCHÉS TRADITION,1200 Rue Beaubien Est,Montréal ,Québec,H2S1T7,Tél.: 514-277-9516, Canada,
459,30,MARCHÉS TRADITION,2535 Rue Jean-Talon Est,Montréal ,Québec,H2A1T6,Tél.: 514-721-5220, Canada,
460,30,MARCHÉS TRADITION,323 Chemin Lakeshore,Pointe-Claire,Québec,,Tél.: 514-695-1530, Canada,
461,30,MARCHÉS TRADITION,2000 Rue Bonin,Saint-Barthélemy,Québec,J0K1X0,Tél.: 450-883-5593, Canada,
462,30,MARCHÉS TRADITION,1700 Rue Principale,Saint-Côme,Québec,J0K2B0,Tél.: 450-883-5593, Canada,
463,30,MARCHÉS TRADITION,95 Rue Alexandre,Salaberry-de-Valleyfield,Québec,,Tél.: 450-373-2515, Canada,
464,30,MARCHÉS TRADITION,183 Rue St-Eugène,Salaberry-de-Valleyfield,Québec,,Tél.: 450-371-8255, Canada,
465,30,MARCHÉS TRADITION,200 Boulevard Métivier,Saint-Damien-de-Buckland,Québec,,Tél.: 418-789-3122, Canada,
466,30,MARCHÉS TRADITION,4 Rue Thibodeau,Sainte-Agathe-des-Monts,Québec,,Tél.: 819-326-4010, Canada,
467,30,MARCHÉS TRADITION,5935 Boulevard Payer,Saint-Hubert,Québec,,Tél.: 450-678-0136, Canada,
468,30,MARCHÉS TRADITION,54 Rue St-Patrice,Saint-Liboire,Québec,,Tél.: 450-793-4442, Canada,
469,30,MARCHÉS TRADITION,2456 Rue Laflèche,Saint-Paulin,Québec,,Tél.: 819-268-2028, Canada,
470,30,MARCHÉS TRADITION,377 Rue Principale,Saint-Sauveur,Québec,,Tél.: 450-227-2141, Canada,
471,30,MARCHÉS TRADITION,137 Rue Commerciale,Saint-Victor-de-Beauce,Québec,J0H1S0,Tél.: 418-588-6803, Canada,
472,30,MARCHÉS TRADITION,"30, rue St-Jean-Baptiste, , ",Sainte-Madeleine,Québec,,, Canada,
473,37,Supermarché PA,4440 Boulevard Samson, Laval,Québec,H7W 2G9,, Canada,
474,35,Rachelle Béry,"2346, rue Beaubien Est",Montréal ,Québec,H2G 1M9,514-727-2327, Canada,
475,31,MAXI Avenue du Pont-Nord,845 Avenue du Pont Nord,Alma,Québec,,Tél.: 418-668-5215, Canada,
476,31,MAXI av. du Pont Sud,1055 Avenue du Pont Sud,Alma,Québec,,Tél.: 418-668-2205, Canada,
477,31,MAXI Amos,472 4e Rue Est,Amos,Québec,,Tél.: 819-732-2115, Canada,
478,31,MAXI Amqui,33 Boulevard St-Benoit,Amqui,Québec,,Tél.: 418-629-4444, Canada,
479,31,MAXI Asbestos,205 1e Avenue,Asbestos,Québec,,Tél.: 819-879-5457, Canada,
480,31,MAXI Baie-Comeau,570 Boulevard Lafeche,Baie-Comeau,Québec,,Tél.: 418-589-9020, Canada,
481,31,MAXI Baie-Saint-Paul,30 Rue Racine,Baie-Saint-Paul,Québec,,Tél.: 418-240-3510, Canada,
482,31,MAXI Beauport,699 Rue Clémenceau,Beauport,Québec,,Tél.: 418-666-0155, Canada,
483,31,MAXI Beloeil,175 Rue Sir Wilfrid-Laurier,Beloeil,Québec,,Tél.: 450-464-3514, Canada,
484,31,MAXI Blainville,1083 Boulevard Curé-Labelle,Blainville,Québec,,Tél.: 450-435-2489, Canada,
485,31,"MAXI & Cie, rue Nobel",1235 Rue Nobel,Boucherville,Québec,,Tél.: 450-655-6656, Canada,
486,31,MAXI Rue Fort St-Louis,520 Rue Fort St-Louis,Boucherville,Québec,,Tél.: 450-641-4985, Canada,
487,31,MAXI Brossard,7200 Boulevard Taschereau,Brossard,Québec,J4W 1N1,Tél.: 450-672-3201, Canada,
488,31,MAXI Cap-de-la-Madeleine,320 Rue Barkoff,Cap-de-la-Madeleine,Québec,,Tél.: 819-378-4932, Canada,
489,31,MAXI Chambly,1601 Boulevard Périgny,Chambly,Québec,,Tél.: 450-447-7500, Canada,
490,31,MAXI Châteauguay,114 Boulevard St-Jean Baptiste,Châteauguay,Québec,,Tél.: 450-691-5100, Canada,
491,31,MAXI Chibougamau,"885 3e Rue, Route 167",Chibougamau,Québec,,Tél.: 418-748-6113, Canada,
492,31,MAXI Chicoutimi,180 Boulevard Barrette,Chicoutimi,Québec,,Tél.: 418-549-9357, Canada,
493,31,MAXI Chicoutimi-Nord,681 Rue Ste-Geneviève,Chicoutimi,Québec,,Tél.: 418-549-2714, Canada,
494,31,MAXI Donnacona,482 Route 138,Donnacona,Québec,,Tél.: 418-285-5101, Canada,
495,31,MAXI Dorval,310 Avenue Dorval,Dorval,Québec,,Tél.: 514-631-6234, Canada,
496,31,MAXI Drummondville,1870 Boulevard St-Joseph,Drummondville,Québec,,Tél.: 819-472-1197, Canada,
497,31,MAXI Buckingham,130 Chemin Lépine,Gatineau,Québec,,Tél.: 819-281-5232, Canada,
498,31,MAXI Gatineau,25 Rue de la Savane,Gatineau,Québec,,Tél.: 819-243-7071, Canada,
499,31,MAXI Estimauville,1699 Rue Estimauville,Giffard,Québec,,Tél.: 418-667-5721, Canada,
500,31,MAXI rue St-Jacques,370 Rue St-Jacques,Granby,Québec,,Tél.: 450-375-8563, Canada,
501,31,MAXI Grand-Mère,2650-1 6e Avenue,Grand-Mère,Québec,,Tél.: 819-538-0262, Canada,
502,31,MAXI Greenfield Park,3398 Boulevard Taschereau,Greenfield Park,Québec,J4V 2H7 ,Tél.: 450-671-8183, Canada,
503,31,MAXI Hull,300 Boulevard St-Joseph,Hull,Québec,,Tél.: 819-777-6551, Canada,
504,31,MAXI Joliette,909 Boulevard Firestone,Joliette,Québec,,Tél.: 450-755-2781, Canada,
505,31,MAXI & Cie Jonquière,3880 Boulevard Harvey,Jonquière,Québec,,Tél.: 418-547-6670, Canada,
506,31,MAXI La Baie,2100 Rue Bagot,La Baie,Québec,,Tél.: 418-544-2848, Canada,
507,31,MAXI La Plaine,7201 Rue Laurier,La Plaine,Québec,,Tél.: 450-968-2876, Canada,
508,31,MAXI La Prairie,50 Boulevard Taschereau,La Prairie,Québec,,Tél.: 450-659-2226, Canada,
509,31,MAXI La Sarre,255 3e Rue Est,La Sarre,Québec,,Tél.: 819-333-2337, Canada,
510,31,MAXI La Tuque,1200 Boulevard Ducharme,La Tuque,Québec,,Tél.: 819-523-8125, Canada,
511,31,MAXI Lachenaie,390 Montée des Pionniers,Lachenaie,Québec,,Tél.: 450-657-7710, Canada,
512,31,MAXI Lachine,3150 Rue Remembrance,Lachine,Québec,,Tél.: 514-637-4606, Canada,
513,31,MAXI Lachute,355 Rue Principale,Lachute,Québec,,Tél.: 450-566-0761, Canada,
514,31,MAXI Lac-Mégantic,3500 Rue Laval,Lac-Mégantic,Québec,,Tél.: 819-583-4001, Canada,
515,31,MAXI Samson,4600 Boulevard Samson,Laval,Québec,,Tél.: 450-682-6870, Canada,
516,31,MAXI St-François,8475 Rue Chartrand,Laval,Québec,,Tél.: 450-665-7361, Canada,
517,31,MAXI & Cie Vimont,2090 Boulevard des Laurentides,Laval,Québec,,Tél.: 450-663-3999, Canada,
518,31,MAXI Fabreville,444 Boulevard Curé-Labelle,Laval,Québec,,Tél.: 450-625-4221, Canada,
519,31,MAXI Lévis,"50 Route Président-Kennedy, #190",Lévis,Québec,,Tél.: 418-837-9505, Canada,
520,31,MAXI & Cie Longueuil,2655 Chemin Chambly,Longueuil,Québec,J4L 1M3,Tél.: 450-448-5771, Canada,
521,31,MAXI Louiseville,550 Boulevard St-Laurent Est,Louiseville,Québec,,Tél.: 819-228-2715, Canada,
522,31,MAXI Maniwaki,170 Rue Principale sud,Maniwaki,Québec,,Tél.: 819-449-6822, Canada,
523,31,MAXI Matane,595 Rue du Phare est,Matane,Québec,,Tél.: 418-562-9066, Canada,
524,31,MAXI Mont-Joli,1760 Boulevard Gaboury,Mont-Joli,Québec,,Tél.: 418-775-3336, Canada,
525,31,MAXI,101 Rue Taché Ouest,Montmagny,Québec,,Tél.: 418-248-0912, Canada,
526,31,MAXI,"10200 boul Pie-IX,  QC  Itinéraire » ",Montréal,,H1H 3Z1,,,
527,31,"MAXI Pointe-aux-Trembles, rue Sherbrooke E.",12 780 Rue Sherbrooke Est,Montréal ,Québec,H1A 4Y3,Tél.: 514-498-2675, Canada,
528,31,"MAXI & Cie Ville St-Laurent, boul. Marcel-Laurin",1757 Boulevard Marcel-Laurin,Montréal ,Québec,H4R 1J5,Tél.: 514-747-2203, Canada,
529,31,"MAXI LaSalle, Dollard st.","2101 Rue Dollard, B15",Montréal ,Québec,H8N 1S2,Tél.: 514-363-1503, Canada,
530,31,MAXI rue Masson,2535 Rue Masson,Montréal ,Québec,H1Y 1V7,Tél.: 514-527-2413, Canada,
531,31,MAXI,2925 rue Sherbrooke E,Montréal,,H1W 1B2,,,
532,31,"MAXI Verdun, rue Wellington",3000 Rue Wellington,Verdun,Québec,H4G 1T1,Tél.: 514-761-2070, Canada,
533,31,MAXI New Richmond,124 Route 132 Ouest,New Richmond,Québec,,Tél.: 418-392-2600, Canada,
534,31,MAXI & Cie Pincourt,92 Cardinal-Léger,Pincourt,Québec,,Tél.: 514-453-6622, Canada,
535,31,MAXI Plessisville,1877 Rue Bilodeau,Plessisville,Québec,,Tél.: 819-362-7370, Canada,
536,31,MAXI boul. Henri-Bourassa,14000 Boulevard Henri-Bourassa,Québec,Québec,,Tél.: 418-623-1502, Canada,
537,31,MAXI Boul. Louis-XIV,1220 Boulevard Louis-XIV,Québec,Québec,,Tél.: 418-628-7672, Canada,
538,31,MAXI rue Bouvier,350 Rue Bouvier,Québec,Québec,,Tél.: 418-623-5475, Canada,
539,31,MAXI ,552 Boulevard Wilfrid-Hamel,Québec,Québec,,Tél.: 418-640-1700, Canada,
540,31,MAXI boul. de l'Ormière,5150 Boulevard de l'Ormière,Québec,Québec,,Tél.: 418-872-3866, Canada,
541,31,MAXI Rawdon,3399 Rue Queen,Rawdon,Québec,,Tél.: 450-834-2644, Canada,
542,31,MAXI Richmond,44 Rue Craig,Richmond,Québec,,Tél.: 819-826-2413, Canada,
543,31,MAXI boul. Jessop,419 Boulevard Jessop,Rimouski,Québec,,Tél.: 418-723-0506, Canada,
544,31,MAXI Rivière-du-Loup,215 Boulevard Hôtel de Ville,Rivière-du-Loup,Québec,,Tél.: 418-863-4100, Canada,
545,31,MAXI Roberval,150 Avenue St-Alphonse,Roberval,Québec,,Tél.: 418-275-4471, Canada,
546,31,MAXI & Cie Rosemère,339 Boulevard Labelle,Rosemère,Québec,,Tél.: 450-437-0471, Canada,
547,31,MAXI Rouyn-Noranda,1074 Avenue Larivière,Rouyn-Noranda,Québec,,Tél.: 819-797-2348, Canada,
548,31,MAXI Sept-Îles,1005 Boulevard Laure,Sept-Îles,Québec,,Tél.: 418-968-1213, Canada,
549,31,MAXI Shawinigan,1643 Boulevard d'Youville,Shawinigan,Québec,,Tél.: 819-536-4412, Canada,
550,31,MAXI & Cie rue Portland,3025 Rue Portland,Sherbrooke,Québec,,Tél.: 819-562-4041, Canada,
551,31,MAXI rue des Grandes Fourches,150 Rue des GrandesFourches Sud,Sherbrooke,Québec,,Tél.: 819-566-9300, Canada,
552,31,MAXI Sorel,450 Rue Poliquin,Sorel,Québec,,Tél.: 450-746-3988, Canada,
553,31,MAXI St-Antoine,500 Boulevard des Laurentides,Saint-Antoine,Québec,,Tél.: 450-436-8723, Canada,
554,31,MAXI St-Basile-le-Gand,2501 Boulevard du Millénaire,St-Basile le Grand,Québec,,Tél.: 450-441-5955, Canada,
555,31,MAXI Ste-Anne-de-Beaupré,101-10516 Boulevard Ste-Anne,Sainte-Anne-de-Beaupré,Québec,,Tél.: 418-827-3748, Canada,
556,31,MAXI & Cie Ste-Foy,3111 Avenue Watt,Sainte-Foy,Québec,,Tél.: 418-657-1133, Canada,
557,31,MAXI Ste-Marie de Beauce,1030 Boulevard Vachon Nord,Sainte-Marie,Québec,,Tél.: 418-387-5779, Canada,
558,31,MAXI Ste-Marthe-sur-le-Lac,2840 Boulevard des Promenades,Sainte-Marthe-sur-le-Lac,Québec,,Tél.: 450-472-3551, Canada,
559,31,MAXI St-Eustache,199 25e Avenue,Saint-Eustache,Québec,,Tél.: 450-491-5588, Canada,
560,31,MAXI & Cie St-Hubert,7900 Boulevard Cousineau,Saint-Hubert,Québec,J3Z 1H2,Tél.: 450-676-4144, Canada,
561,31,MAXI St-Hyacinthe,"15 000, Rue St-Louis",Saint-Hyacinthe,Québec,J2S 3E2,Tél.: 450-771-2737, Canada,
562,31,MAXI & Cie St-Luc,200 Rue Omer-Marcil,Saint-Jean-sur-Richelieu,Québec,J2W 2V1,Tél.: 450-348-0998, Canada,
563,31,MAXI St-Jean,"1000 Boulevard du Séminaire, suite 6",Saint-Jean-sur-Richelieu,Québec,J3A 1E5,Tél.: 450-348-3813, Canada,
564,31,"MAXI & Cie, boul. Grignon",900 Boulevard Grignon,Saint-Jérôme,Québec,,Tél.: 450-436-3824, Canada,
565,31,MAXI St-Romuald,940 Chemin du Sault,Saint-Romuald,Québec,,Tél.: 418-839-5540, Canada,
566,31,"MAXI Terrebonne, ch. Gascon",2260 Chemin Gascon,Terrebonne,Québec,,Tél.: 450-492-8718, Canada,
567,31,"MAXI Terrebonne, boul. Moody",1345 Boulevard Moody,Terrebonne,Québec,,Tél.: 450-471-1009, Canada,
568,31,MAXI Thetford Mines,"805, Boulevard Frontenac Est",Thetford Mines,Québec,,Tél.: 418-338-2136, Canada,
569,31,MAXI Trois-Rivières Ouest,5875 Boulevard Jean XXIII,Trois Rivières,Québec,,Tél.: 819-378-8759, Canada,
570,31,MAXI Val-Bélair,1065 Boulevard Pie XI Nord,Val-Bélair,Québec,,Tél.: 418-843-5342, Canada,
571,31,MAXI Val-d'Or,1504 4e Avenue,Val-d’Or,Québec,,Tél.: 819-824-3595, Canada,
572,31,MAXI Valleyfield,70 Rue Dufferin,Valleyfield,Québec,,Tél.: 450-377-7670, Canada,
573,31,MAXI Victoriaville,120 Boulevard Arthabaska Ouest,Victoriaville,Québec,,Tél.: 819-752-7732, Canada,
574,36,SUPER C,600 Boulevard Sir-Wilfrid-Laurier,Beloeil,Québec,,Tél.: 450-467-1878, Canada,
575,36,SUPER C,259 Boulevard de la Seigneurie Ouest,Blainville,Québec,,Tél.: 450-435-2882, Canada,
576,36,SUPER C,575 Chemin de Touraine,Boucherville,Québec,,Tél.: 450-655-8111, Canada,
577,36,SUPER C,8330 Boulevard Taschereau,Brossard,Québec,J4X 1C2,Tél.: 450-671-0881, Canada,
578,36,SUPER C Chicoutimi,299 Rue des Saguenéens,Chicoutimi,Québec,,Tél.: 418-696-4114, Canada,
579,36,SUPER C,3291 des Sources,Dollard des Ormeaux,Québec,,Tél.: 514-685-0071, Canada,
580,36,SUPER C,3291 des Sources,Dollard des Ormeaux,Québec,,Tél.: 514-685-0071, Canada,
581,36,SUPER C,565 Boulevard Saint-Joseph,Drummondville,Québec,,Tél.: 819-474-2702, Canada,
582,36,SUPER C,181 Rue Principale,Gatineau,Québec,,Tél.: 819-684-2010, Canada,
583,36,SUPER C,720 Boulevard Maloney O,Gatineau,Québec,,Tél.: 819-243-5117, Canada,
584,36,SUPER C,725 Boulevard de la Carrière,Gatineau,Québec,,Tél.: 819-595-1344, Canada,
585,36,SUPER C,181 Rue Principale,Gatineau,Québec,,Tél.: 819-684-2010, Canada,
586,36,SUPER C,65 Boulevard du Plateau,Gatineau,Québec,,Tél.: 819-772-2230, Canada,
587,36,SUPER C,120 Rue Saint-Jude Nord,Granby,Québec,,Tél.: 450-378-8082, Canada,
588,36,SUPER C,5012 Boulevard Taschereau,Greenfield Park,Québec,J4V 2J2 ,Tél.: 450-672-8966, Canada,
589,36,SUPER C Joliette,1445 Boulevard Firestone,Joliette,Québec,,Tél.: 450-752-0088, Canada,
590,36,SUPER C Galeries Jonquière,3460 Boulevard Saint-François,Jonquière,Québec,,Tél.: 418-547-9356, Canada,
591,36,SUPER C,7475 Boulevard Newman,Lasalle,Québec,,Tél.: 514-367-3000, Canada,
592,36,SUPER C,1110 autoRoute Chomedey,Laval,Québec,,Tél.: 450-689-9978, Canada,
593,36,SUPER C,2425 Boulevard Curé-Labelle,Laval,Québec,,Tél.: 450-687-1375, Canada,
594,36,SUPER C,3850 Boulevard Dagenais Ouest,Laval,Québec,,Tél.: 450-628-8143, Canada,
595,36,SUPER C,1000 Boulevard des Laurentides,Laval,Québec,,Tél.: 450-663-8076, Canada,
596,36,SUPER C,4400 Boulevard de la Concorde Est,Laval,Québec,,Tél.: 450-661-4525, Canada,
597,36,SUPER C,2901 Chemin de Chambly,Longueuil,Québec,J4L 1M7,Tél.: 450-651-6886, Canada,
598,36,SUPER C,2125 Roland Therrien,Longueuil,Québec,J4N 1P4,Tél.: 450-448-8229, Canada,
599,18,LOBLAWS,10200 Boulevard Pie IX,Montréal ,Québec,,Tél.: (514) 321-3111, Canada,
600,34,PROVIGO,10455 Boulevard St-Laurent,Montréal ,Québec,H3L 2P1,Tél.: (514) 387-7183, Canada,
601,34,PROVIGO,1115 Boulevard Décarie,Montréal ,Québec,,Tél.: (514) 748-6805, Canada,
602,36,SUPER C,11851 Boulevard Pierrefonds,Montréal ,Québec,,Tél.: 514-685-3276, Canada,
603,36,SUPER C Atwater,147 Avenue Atwater,Montréal ,Québec,,Tél.: 514-939-3542, Canada,
604,34,PROVIGO,14875 Boulevard Pierrefonds,Montréal ,Québec,,Tél.: (514) 626-8687, Canada,
605,36,SUPER C,12695 Rue Sherbrooke Est,Pointe-aux-Trembles,Québec,,Tél.: 514-642-2269, Canada,
606,36,SUPER C,1480 Avenue Jules-Verne,Québec,Québec,,Tél.: 418-864-7171, Canada,
607,36,SUPER C,3333 Rue du carrefour,Québec,Québec,,Tél.: 418-667-7866, Canada,
608,36,SUPER C,85 Brien,Repentigny,Québec,,Tél.: 450-581-3072, Canada,
609,36,SUPER C,395 Montée Industrielle-et-Commerciale,Rimouski,Québec,,Tél.: 418-723-9862, Canada,
610,36,SUPER C,544 Voie de Desserte,Saint-Constant,Québec,,Tél.: 450-633-0698, Canada,
611,36,SUPER C,300 Rue Sicard,Sainte-Thérèse,Québec,,Tél.: 450-435-9544, Canada,
612,36,SUPER C,300 Rue Sicard,Sainte-Thérèse,Québec,,Tél.: 450-435-9544, Canada,
613,36,SUPER C,3103 Boulevard Royal,Shawinigan,Québec,,Tél.: 819-539-7498, Canada,
614,36,SUPER C Fleurimont,1775 King E,Sherbrooke,Québec,,Tél.: 819-563-0110, Canada,
615,36,SUPER C,350 Belvédère S,Sherbrooke,Québec,,Tél.: 819-564-6014, Canada,
616,36,SUPER C,350 Belvédère S,Sherbrooke,Québec,,Tél.: 819-564-6014, Canada,
617,36,SUPER C,3040 Boulevard de Portland,Sherbrooke,Québec,,Tél.: 819-564-0707, Canada,
618,36,SUPER C,250 Boulevard Fiset,Sorel,Québec,,Tél.: 450-742-4563, Canada,
619,36,SUPER C,250 Boulevard Fiset,Sorel,Québec,,Tél.: 450-742-4563, Canada,
620,36,SUPER C,580 Boulevard Arthur-Sauvé,Saint-Eustache,Québec,,Tél.: 450-623-7875, Canada,
621,36,SUPER C St Hyacinthe,"3800, Avenue Cusson",Saint-Hyacinthe,Québec,J2S 8V6,Tél.: 450-771-1651, Canada,
622,36,SUPER C,600 Rue Pierre-Caisse,Saint-Jean-sur-Richelieu,Québec,J3A 1M2,Tél.: 450-348-0927, Canada,
623,36,SUPER C,6775 Rue Jean-Talon Est,Saint-Léonard,Québec,,Tél.: 514-252-0230, Canada,
624,36,SUPER C,1395 Boulevard Moody,Terrebonne,Québec,,Tél.: 450-471-7173, Canada,
625,36,SUPER C,1395 Boulevard Moody,Terrebonne,Québec,,Tél.: 450-471-7173, Canada,
626,36,SUPER C,750 Boulevard du St Maurice,Trois Rivières,Québec,,Tél.: 819-371-1120, Canada,
627,36,SUPER C Vaudreuil Dorion,44 Boulevard de la Cité des Jeunes,Vaudreuil,Québec,,Tél.: 450-455-6222, Canada,
628,36,SUPER C,601 Boulevard Jutras Est,Victoriaville,Québec,,Tél.: 819-752-6659, Canada,
629,34,PROVIGO Acton Vale,1530 Boulevard Acton,Acton Vale,Québec,,Tél.: (450) 546-7733, Canada,
630,34,PROVIGO 7e rue Ouest,511 7E Rue Ouest,Amos,Québec,,Tél.: (819) 732-8213, Canada,
631,34,PROVIGO 1ère avenue Est,82 1e Rue Est,Amos,Québec,,Tél.: (819) 727-9433, Canada,
632,34,PROVIGO Baie d’Urfé,90 Chemin Morgan,Baie d’Urfé,Québec,,Tél.: (514) 457-2321, Canada,
633,34,PROVIGO Baie-Comeau,300 Boulevard LaSalle,Baie-Comeau,Québec,,Tél.: (418) 296-5806, Canada,
634,34,PROVIGO Beauport,491 Rue Seigneuriale,Beauport,Québec,,Tél.: (418) 661-6111, Canada,
635,34,PROVIGO Boisbriand,392 Boulevard Grande Côte,Boisbriand,Québec,,Tél.: 450) 437-3880, Canada,
636,34,PROVIGO Boucherville,1001 Boulevard Montarville,Boucherville,Québec,,Tél.: (450) 641-0232, Canada,
637,34,PROVIGO Cap-Rouge,1100 Boulevard Chaudière,Cap-Rouge,Québec,,Tél.: (418) 653-6282, Canada,
638,34,PROVIGO Chertsey,6900 Route 125,Chertsey,Québec,,Tél.: (450) 882-2332, Canada,
639,34,PROVIGO Chicoutimi-Nord,2120 Rue Roussel,Chicoutimi,Québec,,Tél.: (418) 543-9113, Canada,
640,34,PROVIGO Coaticook,25 Rue Wellington,Coaticook,Québec,,Tél.: (819) 849-9191, Canada,
641,34,PROVIGO Côteau-du-Lac,235 Route 338,Côteau-du-Lac,Québec,,Tél.: (450) 763-1665, Canada,
642,34,PROVIGO Mistassini,224 Boulevard St-Michel,Dolbeau Mistassini,Québec,,Tél.: (418) 276-2677, Canada,
643,34,PROVIGO Dorval,960 Chemin Herron,Dorval,Québec,,Tél.: (514) 636-1535, Canada,
644,34,PROVIGO Drummondville,1226 Rue Dionne,Drummondville,Québec,,Tél.: (819) 472-1646, Canada,
645,34,PROVIGO Evain,23 Boulevard Evain E.,Evain,Québec,,Tél.: (819) 768-3018, Canada,
646,34,PROVIGO Forestville,25 Route 138,Forestville,Québec,,Tél.: (418) 587-2202, Canada,
647,34,PROVIGO Gaspé,167 Rue de la Reine,Gaspé,Québec,,Tél.: (418) 368-7144, Canada,
648,34,PROVIGO boul. St-Joseph,775 Boulevard St-Joseph,Gatineau,Québec,,Tél.: (819) 771-7701, Canada,
649,34,PROVIGO boul. Maloney Est,381 Boulevard Maloney Est,Gatineau,Québec,,Tél.: (819) 663-5374, Canada,
650,34,PROVIGO av. des Flandres,22 av. des Flandres,Gatineau,Québec,,Tél.: 819) 568-5545, Canada,
651,34,PROVIGO Granby,320 Boulevard Leclerc,Granby,Québec,,Tél.: (450) 372-8014, Canada,
652,34,PROVIGO La Malbaie,25 Boulevard Kane,La Malbaie,Québec,,Tél.: (418) 665-3954, Canada,
653,34,PROVIGO Ville des Laurentides,1095 St-Isidore,Laurentides,Québec,,Tél.: (450) 439-5986, Canada,
654,34,PROVIGO Laurier-Station,170 Boulevard Laurier,Laurier-Station,Québec,,Tél.: (418) 728-3254, Canada,
655,34,PROVIGO,255 Boulevard de la Concorde Ouest,Laval,Québec,,Tél.: (450) 668-0793, Canada,
656,34,PROVIGO,1855 Boulevard René Laennec,Laval,Québec,,Tél.: (450) 629-1850, Canada,
657,34,PROVIGO Lavaltrie,250 Rue St-Antoine,Lavaltrie,Québec,,Tél.: (450) 586-1737, Canada,
658,34,PROVIGO Le Gardeur,515 Boulevard Lacombe,Le Gardeur,Québec,,Tél.: (450) 585-6759, Canada,
659,34,PROVIGO Lebel-sur-Quévillon,53 Place Quévillon,Lebel-sur-Quévillon,Québec,,Tél.: (819) 755-4803, Canada,
660,34,PROVIGO Lennoxville,169 Rue Queen,Lennoxville,Québec,,Tél.: (819) 823-0448, Canada,
661,34,PROVIGO boul. Rive Sud,7777 Boulevard Rive-Sud,Lévis,Québec,,Tél.: (418) 837-5496, Canada,
662,34,PROVIGO,6700 St-Georges st.,Lévis,Québec,,Tél.: (418) 833-3404, Canada,
663,34,PROVIGO Longueuil,1601 Boulevard Roland Therrien,Longueuil,Québec,J4J 5C5,Tél.: (450) 468-3840, Canada,
664,34,PROVIGO Lorraine,95 Boulevard de Gaulle,Lorraine,Québec,,Tél.: (450) 621-1115, Canada,
665,34,PROVIGO Marieville,282 Rue Ouellette,Marieville,Québec,,Tél.: (450) 460-7261, Canada,
666,34,PROVIGO Mascouche,1100 Montée Masson,Mascouche,Québec,,Tél.: (450) 474-4121, Canada,
667,34,PROVIGO,1953 Rue Ste-Catherine Ouest,Montréal ,Québec,,Tél.: (514) 932-3756, Canada,
668,36,SUPER C Pie-Ix,2050 Pie IX,Montréal ,Québec,,Tél.: 514-521-6799, Canada,
669,34,PROVIGO,2300 Chemin Lucerne,Montréal ,Québec,,Tél.: (514) 735-0731, Canada,
670,34,PROVIGO,2323 Henri-Bourassa Est,Montréal ,Québec,,Tél.: (514) 381-1301, Canada,
671,34,,2386 ch Lucerne,Montréal,,H3R 2J8,,,
672,34,PROVIGO,2710 Rue des Ormeaux,Montréal ,Québec,H1L 4X7,Tél.: (514) 351-4100, Canada,
673,34,PROVIGO,2925 Rue Sherbrooke Est,Montréal ,Québec,H1W 1B2 ,Tél.: (514) 521-0660, Canada,
674,34,PROVIGO,5220 Avenue Verdun,Verdun,Québec,H4H 1K1,Tél.: (514) 769-0115, Canada,
675,34,,"2925, rue Rachel E",Montréal,,H1W 3Z8,,,
676,34,PROVIGO,3185 Rue Beaubien Est,Montréal ,Québec,H1Y 1H5,Tél.: (514) 721-2433, Canada,
677,34,PROVIGO,3421 Avenue du Parc,Montréal ,Québec,H2X 2H6 ,Tél.: (514) 281-0488, Canada,
678,34,PROVIGO,375 Jean Talon Ouest,Montréal ,Québec,H3N 2Y8,Tél.: (514) 948-2600, Canada,
679,34,PROVIGO,390 Route 117,Mont-Tremblant,Québec,,Tél.: (819) 425-3103, Canada,
680,34,PROVIGO,20 Rue de la Mer,Pointe-à-la-Croix,Québec,,Tél.: (418) 788-5111, Canada,
681,34,PROVIGO,8 Boulevard des Îles,Port-Cartier,Québec,,Tél.: (418) 766-6121, Canada,
682,34,PROVIGO,25 Rue St-Jacques Est,Princeville,Québec,,Tél.: (819) 364-5253, Canada,
683,34,PROVIGO,9550 Boulevard de l'Ormière,Québec,Québec,,Tél.: (418) 843-1732, Canada,
684,34,PROVIGO,2235 1ière Avenue,Québec,Québec,,Tél.: (418) 522-3841, Canada,
685,34,PROVIGO,342 ch. Témiscouata,Rivière-du-Loup,Québec,,Tél.: (418) 862-2622, Canada,
686,34,PROVIGO,"649 Boulevard Laure, suite 100",Sept-Îles,Québec,,Tél.: (418) 962-2240, Canada,
687,34,PROVIGO,2185 Rue Galt Ouest,Sherbrooke,Québec,,Tél.: (819) 563-3313, Canada,
688,34,PROVIGO rue King Ouest,1100 13e Avenue North,Sherbrooke,Québec,,Tél.: (819) 562-6788, Canada,
689,34,PROVIGO,800 Rue King Est,Sherbrooke,Québec,,Tél.: (819) 562-8684, Canada,
690,34,PROVIGO,2209 Rue King Ouest,Sherbrooke,Québec,,Tél.: (819) 562-8530, Canada,
691,34,PROVIGO,1095 Rue Belvédère Sud,Sherbrooke,Québec,,Tél.: (819) 569-5953, Canada,
692,34,PROVIGO Sillery,955 Boulevard René-Lévesque Ouest,Sillery,Québec,,Tél.: (418) 527-3481, Canada,
693,34,PROVIGO Sorel,50 Rue Victoria,Sorel,Québec,,Tél.: (450) 743-5738, Canada,
694,34,PROVIGO St-Augustin,130 Route Racette,Saint-Augustin,Québec,,Tél.: (418) 878-2615, Canada,
695,34,PROVIGO 801 Principale st.,801 Rue Principale,Sainte-Agathe-des-Monts,Québec,,Tél.: (819) 323-1110, Canada,
696,34,PROVIGO Ste-Anne-des-Plaines,480 Boulevard Sainte-Anne,Sainte-Anne-des-Plaines,Québec,,Tél.: (450) 478-1864, Canada,
697,34,PROVIGO ch. St-Louis,3440 ch. Quatre Bourgeois,Sainte-Foy,Québec,,Tél.: (418) 653-6241, Canada,
698,34,PROVIGO ch. Quatre Bourgeois,2900 Chemin St-Louis,Sainte-Foy,Québec,,Tél.: (418) 653-6277, Canada,
699,34,PROVIGO av. Myrand,815 Avenue Myrand,Sainte-Foy,Québec,,Tél.: (418) 683-1981, Canada,
700,34,PROVIGO Ste-Julie,101 Boulevard des Hauts-Bois,Sainte-Julie,Québec,,Tél.: (450) 649-2421, Canada,
701,34,PROVIGO St-Étienne Lauzon,1001 Route Lagueux,Saint-Étienne-de-Lauzon,Québec,,Tél.: (418) 836-1690, Canada,
702,34,PROVIGO St-Georges de Beauce,11400 1ère Avenue E.,Saint-Georges de Beauce,Québec,,Tél.: (418) 228-4920, Canada,
703,34,PROVIGO St-Jacques de Montcalm,8 Rue St-Jacques,Saint-Jacques de Montcalm,Québec,,Tél.: (450) 839-7218, Canada,
704,34,PROVIGO St-Jean,429 Rue St-Jacques,Saint-Jean,Québec,,Tél.: (450) 347-6811, Canada,
705,34,PROVIGO St-Lambert,1461 Avenue Victoria,Saint-Lambert,Québec,,Tél.: (450) 671-6205, Canada,
706,34,PROVIGO St-Michel-des-Saints,110 Rue Brassard,Saint-Michel-des-Saints,Québec,,Tél.: (450) 833-6000, Canada,
707,34,PROVIGO St-Pascal de Kamouraska,501 Rue Patry,Saint-Pascal de Kamouraska,Québec,,Tél.: (418) 492-1034, Canada,
708,34,PROVIGO St-Raymond de Portneuf,260 Rue St-Cyrille,Saint-Raymond Portneuf,Québec,,Tél.: (418) 337-2278, Canada,
709,34,PROVIGO,91 Rue Lachapelle E.,Saint-Rémi,Québec,,Tél.: (450) 454-2373, Canada,
710,34,PROVIGO Témiscamingue Sud,301 Chemin Kipawa,Témiscaming,Québec,,Tél.: (819) 627-3391, Canada,
711,34,PROVIGO Trois-Pistoles,77 Rue Pelletier Nord,Trois-Pistoles,Québec,,Tél.: (418) 851-1215, Canada,
712,34,PROVIGO Varennes,2020 Boulevard René Gaultier,Varennes,Québec,,Tél.: (450) 652-9809, Canada,
713,34,PROVIGO Ville-Marie,100 Rue des Oblats Nord,Ville-Marie,Québec,,Tél.: (819) 629-2355, Canada,
714,34,PROVIGO Windsor,295 Rue St-Georges,Windsor,Québec,,Tél.: (819) 845-2721, Canada,
715,18,LOBLAWS,800 Henri-Bourassa Boulevard Ouest,Ahuntsic,Québec,,Tél.: (514) 856-3444, Canada,
716,18,LOBLAWS,1201 Boulevard Duplessis,Ancienne-Lorette,Québec,,Tél.: (418) 872-2400, Canada,
717,18,LOBLAWS,2925 Rachel Est,Angus,Québec,,Tél.: (514) 522-4442, Canada,
718,18,LOBLAWS,375 Chemin Aylmer,Aylmer,Québec,,Tél.: 819-682-4433, Canada,
719,18,LOBLAWS,1575 Panama Avenue,Brossard,Québec,J4W 2S8,Tél.: (450) 466-2828, Canada,
720,18,LOBLAWS,6600 St-Jacques Ouest,Cavendish,Québec,,Tél.: (514) 481-6959, Canada,
721,18,LOBLAWS,4545 Henri-Bourassa Boulevard,Charlesbourg,Québec,,Tél.: 418) 622-7070, Canada,
722,18,LOBLAWS,1155 Talbot Boulevard,Chicoutimi,Québec,,Tél.: (418) 690-0063, Canada,
723,18,LOBLAWS,1950 Boulevard de la Concorde Est,Concorde,Québec,,Tél.: (450) 629-8600, Canada,
724,18,LOBLAWS,1122 du Sud,Cowansville,Québec,,Tél.: (450) 263-5439, Canada,
725,18,LOBLAWS,31 Georges-Gagné,Delson,Québec,,Tél.: (450) 638-5041, Canada,
726,18,LOBLAWS,325 Boulevard St-Joseph,Drummondville,Québec,,Tél.: (819) 475-4073, Canada,
727,18,LOBLAWS,800 Maloney Ouest Ouest,Gatineau,Québec,,Tél.: (819) 561-9244, Canada,
728,18,LOBLAWS,80 St-Judes Nord,Granby,Québec,,Tél.: (450) 777-2875, Canada,
729,18,LOBLAWS,1 Du Plateau Boulevard,Hull,Québec,,Tél.: (819) 777-2747, Canada,
730,18,LOBLAWS,16900 Autoroute Transcanada,Kirkland,Québec,,Tél.: (514) 426-3005, Canada,
731,18,LOBLAWS,6767 Boulevard Newman,Lasalle,Québec,,Tél.: (514) 364-7168, Canada,
732,18,Provigo Le Marché,1150 rue King-George,Longueuil,Québec,J4N 1P3,Tél.: (450) 647-1717, Canada,
733,18,LOBLAWS,1350 Sherbrooke,Magog,Québec,,Tél.: (819) 868-8630, Canada,
734,34,PROVIGO,"42 Place du Commerce, Île des Soeurs",Montréal ,Québec,,Tél.: (514) 761-7207, Canada,
735,34,,42 Place du Commerce,Verdun,,H3E 1J5,,,
736,18,LOBLAWS,"4849 Boulevard St-Jean, Pierrefonds",Montréal ,Québec,,Tél.: (514) 624-6369, Canada,
737,34,PROVIGO,50 Avenue Mont-Royal Ouest,Montréal ,Québec,H2T 2S3,Tél.: (514) 849-8028, Canada,
738,18,LOBLAWS,86 Boulevard Brien,Repentigny,Québec,,Tél.: (450) 581-8866, Canada,
739,18,LOBLAWS,7605 Maurice-Duplessis Boulevard,Rivière-des-Prairies,Québec,,Tél.: (514) 494-1117, Canada,
740,18,LOBLAWS,7605 Maurice-Duplessis Boulevard,Rivière-des-Prairies,Québec,,Tél.: (514) 494-1117, Canada,
741,18,LOBLAWS,4 15e Rue,Rouyn-Noranda,Québec,,Tél.: (819) 797-1723, Canada,
742,18,LOBLAWS,1402 Roberval,Saint-Bruno,Québec,,Tél.: (450) 653-0433, Canada,
743,18,LOBLAWS,525 Boulevard Arthur-Sauvé,Saint-Eustache,Québec,,Tél.: (450) 491-7007, Canada,
744,18,LOBLAWS,8200 Lacroix Boulevard,Saint-Georges de Beauce,Québec,,Tél.: (418) 227-9228, Canada,
745,18,LOBLAWS,"2000, Boulevard Casavant Ouest",Saint-Hyacinthe,Québec,J2S 7K2,Tél.: (450) 771-6601, Canada,
746,18,LOBLAWS,3500 Boulevard St-Martin Ouest,Saint-Martin,Québec,,Tél.: (450) 688-2969, Canada,
747,18,LOBLAWS,50 St-Denis,Saint-Sauveur,Québec,,Tél.: (450) 227-2827, Canada,
748,18,LOBLAWS,3725 Boulevard des Forges,Trois Rivières,Québec,,Tél.: (819) 374-8980, Canada,
749,18,LOBLAWS,680 Boulevard Barrette,Val-d’Or,Québec,,Tél.: (819) 825-5000, Canada,
750,18,LOBLAWS,501 Boulevard St-Charles,Vaudreuil,Québec,,Tél.: (450) 455-6161, Canada,
751,18,LOBLAWS,60 Carignan,Victoriaville,Québec,,Tél.: (819) 752-4527, Canada,
752,32,METRO - Metro Dubé Delisle,2892 Avenue du Pont Nord,Alma,Québec,,Tél.: 418-662-9230, Canada,
753,32,METRO - Marché R. Dubé Ltée,370 Avenue Begin Sud,Alma,Québec,,Tél.: 418-662-3611, Canada,
754,32,METRO - Metro Plus Coop D'Asbestos,511 1e Avenue,Asbestos,Québec,,Tél.: 819-879-5427, Canada,
755,32,METRO - Alimentation F. Furino Inc.,50 Boulevard St-Charles,Beaconsfield,Québec,,Tél.: 514-695-5811, Canada,
756,32,METRO - Marché Port-Royal Inc.,4900 Avenue Fardel,Bécancour,Québec,,Tél.: 819-233-2331, Canada,
757,32,METRO - Super Marché Plouffe,20 Avenue des Pins,Bedford,Québec,,Tél.: 450-248-2968, Canada,
758,32,METRO - Alimentation Manon Bellemare,94 Boulevard Cartier,Beloeil,Québec,,Tél.: 450-467-2397, Canada,
759,32,METRO - Metro Plus Élite Blainville,1360 Boulevard Curé-Labelle,Blainville,Québec,,Tél.: 450-435-1279, Canada,
760,32,METRO - Metro Plus Marché Desjardins,2200 Boulevard du Faubourg,Boisbriand,Québec,,Tél.: 450-979-2300, Canada,
761,32,METRO - Metro Bois-des-Filions,425 Rue Adolphe-Chapleau,Bois-des-Filions,Québec,,Tél.: 450-621-1766, Canada,
762,32,METRO - Marché Sabrevois,535 Boulevard Samuel-de-Champlain,Boucherville,Québec,,Tél.: 450-655-2634, Canada,
763,32,METRO - Marché J.C. Messier,650 Rue Fort St-Louis,Boucherville,Québec,,Tél.: 450-655-9026, Canada,
764,32,METRO - Mon Marché Breton Inc.,89C Boulevard Bromont,Bromont,Québec,,Tél.: 450-534-5373, Canada,
765,32,METRO - Metro Marché Bellemare,6425 Boulevard Milan,Brossard,Québec,J4Z 2B5,Tél.: 450-445-3445, Canada,
766,32,METRO - Metro Plus Marché Collin,2004 Boulevard Rome,Brossard,Québec,J4W 3M7,Tél.: 450-671-8885, Canada,
767,32,METRO - Metro Plus Bellemare,2121 Boulevard Lapinière,Brossard,Québec,J4W 1L7,Tél.: 450-466-6850, Canada,
768,32,METRO - Metro Marché Coudry,830 Boulevard Provencher,Brossard,Québec,J4Y 1G3,Tél.: 450-465-9430, Canada,
769,32,METRO - Metro Plus Candiac,50 Rue Montcalm Nord,Candiac,Québec,,Tél.: 450-444-2300, Canada,
770,32,METRO - Marché L.V. Ltée,686 Boulevard Perron,Carleton,Québec,,Tél.: (418)364-7380, Canada,
771,32,METRO - Metro Plus Marché Collin ,1233 Boulevard Perigny,Chambly,Québec,,Tél.: 450-658-0367, Canada,
772,32,METRO - Marché Mario Doiron Inc.,175 Boulevard René-Lévesque,Chandler,Québec,,Tél.: 418-689-6999, Canada,
773,32,METRO - Metro Fogarty Charlemagne,1 Rue Quintal,Charlemagne,Québec,,Tél.: 450-581-6611, Canada,
774,32,METRO - Metro Plus Châteauguay,105 Rue Principale,Châteauguay,Québec,,Tél.: 450-699-8796, Canada,
775,32,METRO - Entreprise G A Leblanc,62 Rue Principale,Chénéville,Québec,,Tél.: 819-428-3966, Canada,
776,32,METRO - Metro Valcartier,"190 Rue Dubé, Base de Valcartier",Courcelette,Québec,,Tél.: 418-844-3751, Canada,
777,32,METRO - Marché du Témis,605 Avenue Principale,Degelis,Québec,,Tél.: 418-853-5560, Canada,
778,32,METRO - Super Marché Dubuc Inc.,300 12e Avenue,Deschaillons,Québec,,Tél.: 819-292-2731, Canada,
779,32,METRO - Metro Plus Marché D. Boutin,99 8e Avenue,Dolbeau Mistassini,Québec,,Tél.: 418-276-0361, Canada,
780,32,METRO - Metro Donnacona,325 Rue de l'Église,Donnacona,Québec,,Tél.: 418-285-3011, Canada,
781,32,METRO - Promenades Drummondville,755 Boulevard René-Levesque,Drummondville,Québec,,Tél.: 819-472-6229, Canada,
782,32,METRO - Alimentation D.P. Plouffe,450 Rue Meigs Nord,Farnham,Québec,,Tél.: 450-293-3123, Canada,
783,32,METRO - Metro Béland,231 Rue Hérault,Fort Coulonge,Québec,,Tél.: 819-683-2740, Canada,
784,32,METRO - Metro Plus Marché Viau & Fils,180 Chemin Lépine,Gatineau,Québec,,Tél.: 819-986-5761, Canada,
785,32,METRO - Metro Limbour,2505 Rue St-Louis,Gatineau,Québec,,Tél.: 819-561-3772, Canada,
786,32,METRO - Metro Plus Marché Céré,1125 Rue St-René Ouest,Gatineau,Québec,,Tél.: 819-561-6627, Canada,
787,32,METRO - Metro Cité des Jeunes,214 Boulevard de la Cité des Jeunes,Gatineau,Québec,,Tél.: 819-778-7330, Canada,
788,32,METRO - Metro Promenades,1100 Boulevard Maloney Ouest,Gatineau,Québec,,Tél.: 819-568-8703, Canada,
789,32,METRO - Metro Plus Leblanc,910 Boulevard Maloney Est,Gatineau,Québec,,Tél.: 819-643-2353, Canada,
790,32,METRO - Supermarché Ber-Jac Inc.,"27 Rue Principale, C.P. 302",Gracefield,Québec,,Tél.: 819-463-3490, Canada,
791,32,METRO - Metro Breton,65 Rue Principale,Granby,Québec,,Tél.: 450-378-9926, Canada,
792,32,METRO - Viateur Paquette & Fils,1026 Route 133,Henryville,Québec,,Tél.: 450-299-2433, Canada,
793,32,METRO - Metro Plus Marché Bel-air,180 Rue Beaudry Nord,Joliette,Québec,,Tél.: 450-759-8731, Canada,
794,32,METRO - Marché Kirkland,3700 Boulevard St-Charles,Kirkland,Québec,,Tél.: 514-426-0031, Canada,
795,32,METRO - Ancienne-Lorette,1875 Rue Notre-Dame,L' Ancienne-Lorette,Québec,,Tél.: 418-872-6236, Canada,
796,32,METRO - Marché Metro La Malbaie,375 Boulevard de Comporte,La Malbaie,Québec,,Tél.: 418-665-4473/4, Canada,
797,32,METRO - Metro Plus Lebel,615 1e Rue,La Pocatière,Québec,,Tél.: 418-856-3827, Canada,
798,32,METRO - Metro Ofrigidaire,1575 Route 277 Lac-Etchemin,Lac Etchemin,Québec,,Tél.: 418-625-6301, Canada,
799,32,METRO - Supermarché Lachute,501 Avenue Bethany,Lachute,Québec,,Tél.: 450-562-7919, Canada,
800,32,METRO - Metro Alain & Valiquette Ltée,5420 Rue Frontenac,Lac-Mégantic,Québec,,Tél.: 819-583-1400, Canada,
801,32,METRO - Supermarché Laroche Inc.,122 Boulevard Laurier,Laurier-Station,Québec,,Tél.: 418-728-2882, Canada,
802,32,METRO - Metro Plus de la Concorde,155 Boulevard de la Concorde Est,Laval,Québec,,Tél.: 450-667-3277, Canada,
803,32,METRO - Metro Plus Marché Depatie,1100 Boulevard de l'Avenir,Laval,Québec,,Tél.: 450-687-8233, Canada,
804,32,METRO - Metro Fabreville,3375 Boulevard Dagenais Ouest,Laval,Québec,,Tél.: 450-622-1210, Canada,
805,32,METRO - Metro Plus Place Duvernay,3200 Boulevard de la Concorde Est,Laval,Québec,,Tél.: 450-661-1081, Canada,
806,32,METRO - Marché Dunn (1990),1904 Boulevard des Laurentides,Laval,Québec,,Tél.: 450-669-2633/34, Canada,
807,32,METRO - Metro Plus Marché J.C. Messier,5000 Boulevard des Laurentides,Laval,Québec,,Tél.: 450-963-3307, Canada,
808,32,METRO - Metro,1205 Boulevard Curé-Labelle,Laval,Québec,,Tél.: 450-622-4524, Canada,
809,32,METRO - Supermarché Perrier et Martel,6155 Boulevard Arthur-Sauvé,Laval,Québec,,Tél.: 450-627-4496, Canada,
810,32,METRO - Marché Denigil (1984),555 Boulevard Samson Ouest,Laval,Québec,,Tél.: 450-689-2282, Canada,
811,32,METRO - Marché Metro Majeau,24 Rue du Couvent,L'Épiphanie,Québec,,Tél.: 450-588-2501/02, Canada,
812,32,METRO - Metro Plus Marché Émery & Fils,80 Rue St-Marc,Louiseville,Québec,,Tél.: 819-228-2764, Canada,
813,32,METRO - Metro Plus Plouffe,460 Rue St-Patrice Ouest,Magog,Québec,,Tél.: 819-843-9202, Canada,
814,32,METRO - Metro Marché Lapointe,100 Rue Beaulieu,Maniwaki,Québec,,Tél.: 819-449-1699, Canada,
815,32,METRO - Metro Leblanc Marieville,140 Rue Ouellette,Marieville,Québec,,Tél.: 450-460-4480, Canada,
816,32,METRO - Supermarché Mascouche,875 Rue Montée Masson,Mascouche,Québec,,Tél.: 450-966-9996, Canada,
817,32,METRO - Marché Doré & Fils,939 Boulevard Paquette,Mont-Laurier,Québec,,Tél.: 819-623-6984, Canada,
818,32,METRO - Alimentation Léon Collin Inc.,122 Rue Boulet,Montmagny,Québec,,Tél.: 418-248-3600, Canada,
819,32,Metro Richelieu Inc ouvert,"11011, boul Maurice-Duplessis",Montréal,,H1C 1V6,,,
820,32,De la Montagne,"1230, rue Notre-Dame O",Montréal,,H3C 1K6,,,
821,32,METRO - Marché Lachance,1263 Rue Jean-Talon Est,Montréal ,Québec,,Tél.: 514-274-7306, Canada,
822,32,Racicot,1280 av Beaumont,Montréal,,H3P 3E5,,,
823,32,METRO - E. Chevrefils & fils,1293 Rue Laurier Est,Montréal ,Québec,H2J 1H2,Tél.: 514-524-8788, Canada,
824,32,METRO - Alimentation Francis Larivière Inc.,13057 Boulevard Gouin Ouest,Montréal ,Québec,,Tél.: 514-620-7370, Canada,
825,32,Côte Vertu,"134-740, ch Côte-Vertu",Montréal,,H4L 5C8,,,
826,32,METRO - Metro Plus St-Jean-Baptiste,1400 Boulevard St-Jean-Baptiste,Montréal ,Québec,H1B 4A5,Tél.: 514-640-5167, Canada,
827,32,METRO - Marché Marcanio ,1550 Rue Bélanger,Montréal ,Québec,H2G 1A8,Tél.: 514-729-1866, Canada,
828,32,METRO - Metro Plus Fleury,1745 Rue Fleury Est,Montréal ,Québec,H2C 1T3,Tél.: 514-385-1760, Canada,
829,32,METRO - Metro Plus Dollard,1880 Avenue Dollard,Montréal ,Québec,H8N 3G5,Tél.: 514-364-3492, Canada,
830,32,METRO - Metro Plus Dorion Ste-Catherine,1955 Rue Ste-Catherine Est,Montréal ,Québec,H2K 2H6,Tél.: 514-525-5090, Canada,
831,32,METRO - Marché Bigras,2008 Rue Gauthier,Montréal ,Québec,H2K 1A7,Tél.: 514-523-5882, Canada,
832,32,METRO - Supermarché Mont-Royal,2185 Avenue Mont-Royal Est,Montréal ,Québec,H2H 1K7,Tél.: 514-522-5146, Canada,
833,32,METRO - Marché Gaboury & Fils,2650 Boulevard Rosemont,Montréal ,Québec,,Tél.: 514-727-0312, Canada,
834,32,Marché Ami,2850 rue de Rouen,Montréal,,H2K 1N7,,,
835,32,METRO - Alimentation Henderickx,2875 Avenue Van-Horne,Montréal ,Québec,H3S 1P6,Tél.: 514-739-3139, Canada,
836,32,METRO - Metro Plus De La Rousselière,3000 Boulevard de la Rousselière,Montréal ,Québec,H1A 4G3,Tél.: 514-498-7117, Canada,
837,32,METRO - Metro Chauvin,3390 Boulevard Henri-Bourassa Est,Montréal ,Québec,,Tél.: 514-321-2250, Canada,
838,32,METRO - Bellemare,349 Avenue de l'Église,Verdun,Québec,H4G 2M5,Tél.: 514-761-3406, Canada,
839,32,METRO - Metro du Parc,3575 Avenue du Parc Suite 1500,Montréal ,Québec,,Tél.: 514-843-3530, Canada,
840,32,METRO - Metro Plus St-Joseph,3600 Boulevard St-Joseph Est,Montréal ,Québec,H1X 1W6,Tél.: 514-254-6689, Canada,
841,32,METRO - Alimentation Éric Côté Inc.,3800 Rue Ontario Est,Montréal ,Québec,H1W 1S4,Tél.: 514-524-8850, Canada,
842,32,METRO - Supermarché Racicot,1280 Avenue Beaumont,Mont-Royal,Québec,,Tél.: 514-737-3511, Canada,
843,32,METRO - Supermarché St-Hilaire,345 Boulevard Honorius-Charbonneau,Mont-St-Hilaire,Québec,,Tél.: 450-467-8977, Canada,
844,32,METRO - Metro Marché Chevrefils Mont-Tremblant,1011 Rue St-Jovite,Mont-Tremblant,Québec,,Tél.: 819-425-3381, Canada,
845,32,METRO - Marché Corriveau,370 Rue St-Jacques,Napierville,Québec,,Tél.: 450-245-3316, Canada,
846,32,METRO - Marché Beaumier Ltée,2315 rang Les Quarante,Nicolet,Québec,,Tél.: 819-293-5349, Canada,
847,32,METRO - Metro Plus Famille Lemay,450 Boulevard don-Quichotte,Notre-Dame-de-l'Ile-Perrot,Québec,,Tél.: 514-425-6111, Canada,
848,32,METRO - Supermarché Oka,31 Rue Notre-Dame,Oka,Québec,,Tél.: 450-479-8769, Canada,
849,32,METRO - Marché Metro Leblanc,377 Rue Papineau,Papineauville,Québec,,Tél.: 819-427-8667, Canada,
850,32,METRO - Marché Metro Rouillard & Shooner,21 Rue Georges,Pierreville,Québec,,Tél.: 450-568-3510, Canada,
851,32,METRO - Metro Pincourt,107 Boulevard Cardinal Léger,Pincourt,Québec,,Tél.: 514-453-5875/6, Canada,
852,32,METRO - Plaza Pointe-Claire,325 Boulevard St-Jean,Pointe-Claire,Québec,,Tél.: 514-697-6520, Canada,
853,32,METRO - Supermarché B.M.,149 Rue du Collège,Pont-Rouge,Québec,,Tél.: 418-873-2015, Canada,
854,32,METRO - Metro G.P. St-Émile,6690 Rue De La Faune,Québec,Québec,,Tél.: 418-843-5977, Canada,
855,32,METRO - Supermarché B.M. (Metro) Inc.,977 Rue Cartier,Québec,Québec,,Tél.: 418-522-8011, Canada,
856,32,METRO - Metro Galeries Duplessis,"3291 Chemin Ste-Foy, suite 101",Québec,Québec,,Tél.: 418-656-6116, Canada,
857,32,METRO - Supermarché Ferland,707 Boulevard Charest Ouest,Québec,Québec,,Tél.: 418-681-7385, Canada,
858,32,METRO - Alimentation Marquis Inc.,963 Avenue Mainguy,Québec,Québec,,Tél.: 418-658-0017, Canada,
859,32,METRO - Marché du Centre Innovation,"2360 Chemin Ste-Foy, local 100",Québec,Québec,,Tél.: 418-656-0728, Canada,
860,32,METRO - Supermarché J.P. Dorion Inc.,3245 1e Avenue,Québec,Québec,,Tél.: 418-626-2122, Canada,
861,32,METRO - Metro Plus Val-Bélair,1370 Boulevard Pie-XI Nord,Québec,Québec,,Tél.: 418-842-8556, Canada,
862,32,METRO - Metro Plaza Laval,2750 Chemin Ste-Foy,Québec,Québec,,Tél.: 418-651-9796, Canada,
863,32,METRO - Metro Plus Beauport,2830 Avenue St-David,Québec,Québec,,Tél.: 418-666-3888, Canada,
864,32,METRO - Metro Place Seigneuriale,600 Rue Cambronne,Québec,Québec,,Tél.: 418-663-1554, Canada,
865,32,METRO - Metro Mail Centre-Ville,860 Boulevard Charest Est,Québec,Québec,,Tél.: 418-648-8794, Canada,
866,32,METRO - Metro Champfleury,2828 Rue Champfleury,Québec,Québec,,Tél.: 418-667-1117, Canada,
867,32,METRO - Metro Place Laforest,3100 Rue Laforest,Québec,Québec,,Tél.: 418-651-5004, Canada,
868,32,METRO - Metro Plus Ste-Foy,2450 Boulevard Sir Wilfrid-Laurier,Québec,Québec,,Tél.: 418-651-8150, Canada,
869,32,METRO - Metro Plus Rawdon,3528 Rue Metcalfe,Rawdon,Québec,,Tél.: 450-834-2561, Canada,
870,32,METRO - Super marché Iberville,305 Boulevard d'Iberville,Repentigny,Québec,,Tél.: 450-581-2630, Canada,
871,32,METRO - Metro Plus Marquis,150 Rue Louvain,Repentigny,Québec,,Tél.: 450-585-1445, Canada,
872,32,METRO - Marché Rigaud,466 Rue Grande-Ligne,Rigaud,Québec,,Tél.: 450-451-0520, Canada,
873,32,METRO - Metro Sirois Inc.,465 Boulevard St-Germain Ouest,Rimouski,Québec,,Tél.: 418-722-0722, Canada,
874,32,METRO - Magasin CO-OP de Rivière-du-Loup,298 Boulevard Armand Thériault,Rivière-du-Loup,Québec,,Tél.: 418-862-3594, Canada,
875,32,METRO - Metro Rosemère,348 Chemin Grande-Côte,Rosemère,Québec,,Tél.: 450-621-3510, Canada,
876,32,METRO - Metro Plus Marché P.E. Prix,2350 Rue St-Hubert,Saguenay,Québec,,Tél.: 418-547-6611, Canada,
877,32,METRO - Metro Sagamie,2655 Boulevard du Royaume,Saguenay,Québec,,Tél.: 418-548-8246, Canada,
878,32,METRO - Marché A. Larouche Ltée,992 Rue Saguenay Est,Saguenay,Québec,,Tél.: 418-543-4521, Canada,
879,32,METRO - Marché St-Alphonse,790 Route 343,Saint-Alphonse-Rodriguez,Québec,,Tél.: 450-883-2963, Canada,
880,32,METRO - Metro St André Avellin,110-90 Rue Principale,Saint-André-Avellin,Québec,,Tél.: 819-983-7966, Canada,
881,32,METRO - Metro de l'Hétrière,3679 Boulevard de l'Hétrière,Saint-Augustin-de-Desmaures,Québec,,Tél.: 418-872-4444, Canada,
882,32,METRO - Metro Marché Leblanc,2060-1 Route 112,Saint-Césaire,Québec,,Tél.: 450-469-4793, Canada,
883,32,METRO - Metro Plus Marché Bel-air,320 Rue de la Visitation,Saint-Charles-Borromée,Québec,,Tél.: 450-759-6500, Canada,
884,32,METRO - Marché Charette Inc.,441 Rue Notre-Dame,Saint-Chrysostome,Québec,,Tél.: 450-826-3193, Canada,
885,32,METRO - Metro Plus St-Constant,"300 Voie de la Desserte, route 132",Saint-Constant,Québec,,Tél.: 450-638-9022, Canada,
886,32,METRO - Marché Michel Emery Inc.,7180 Rue Principale,Saint-Damien-de-Brandon,Québec,,Tél.: 450-835-4445, Canada,
887,32,METRO - Metro Boucher,"870 Rue Principale, C.P. 1120",Saint-Donat,Québec,,Tél.: 819-424-7679, Canada,
888,32,METRO - Metro Plus Marché Chevrefils Ste-Adèle,555 Boulevard Ste-Adèle,Sainte-Adèle,Québec,,Tél.: 450-229-2345, Canada,
889,32,METRO - Metro Plus Marché Chevrefils Ste-Agathe,1050 Rue Principale,Sainte-Agathe-des-Monts,Québec,,Tél.: 819-326-2822, Canada,
890,32,METRO - Marché La Pérade Inc.,185 Rue Principale,Sainte-Anne-de-la-Pérade,Québec,,Tél.: 418-325-2233, Canada,
891,32,METRO - Les Épiciers Hogue et Frères,7 Boulevard Ste-Anne,Sainte-Anne-des-Plaines,Québec,,Tél.: 450-478-1765, Canada,
892,32,METRO - Metro Cardinal,5480 Boulevard St-Laurent,Sainte-Catherine,Québec,,Tél.: 450-638-0360, Canada,
893,32,METRO - Metro Ste-Claire,165 Boulevard Begin,Sainte-Claire,Québec,,Tél.: 418-883-3939, Canada,
894,32,METRO - Supermarché Ste-Croix Inc.,"6452 Rue Principale, C.P. 70",Sainte-Croix,Québec,,Tél.: 418-926-2267, Canada,
895,32,METRO - Supermarché Riendeau,"1700 Chemin du Fer à Cheval, C.P. 1710",Sainte-Julie,Québec,,Tél.: 450-649-7676, Canada,
896,32,METRO - Metro Plus Beaulieu,1535 Route 125,Sainte-Julienne,Québec,,Tél.: 450-831-2166, Canada,
897,32,METRO - Marché Ste-Madeleine,30 Rue St-Jean-Baptiste,Sainte-Madeleine,Québec,,Tél.: 450-795-3355, Canada,
898,32,METRO - Metro Plus Labonté,1116 Boulevard Vachon,Sainte-Marie,Québec,,Tél.: 418-387-3120, Canada,
899,32,METRO - Ronald Boucher & Fils,"851 Rue Principale, C.P. 150",Sainte-Mélanie,Québec,,Tél.: 450-889-8363, Canada,
900,32,METRO - Metro Plus Ste-Thérèse,214 Boulevard René A. Robert,Sainte-Thérèse,Québec,,Tél.: 450-971-0458, Canada,
901,32,METRO - Marché Metro St-Félicien,1200 Boulevard St-Félicien,Saint-Félicien,Québec,,Tél.: 418-679-1431, Canada,
902,32,METRO - Marché Bourgeault,160 Rue St-Gabriel,Saint-Gabriel-de-Brandon,Québec,,Tél.: 450-835-4794, Canada,
903,32,METRO - Metro Marché Laval Veilleux ,17850 Boulevard Lacroix,Saint-Georges,Québec,,Tél.: 418-228-8661, Canada,
904,32,METRO - Épicerie Poulin & Frères Inc.,1000 127e Rue,Saint-Georges,Québec,,Tél.: 418-228-6656, Canada,
905,32,METRO - Alimentation Vincent & Fils,3104 Rue Principale,Saint-Jean-Baptiste,Québec,,Tél.: 450-467-5502, Canada,
906,32,METRO - Supermarché Boucher Inc.,"841 Route Louis-Cyr, C.P. 1579",Saint-Jean-de-Matha,Québec,,Tél.: 450-886-1010, Canada,
907,32,METRO - Metro St-Lazare,1780 Chemin Sainte-Angélique,Saint-Lazare,Québec,,Tél.: 450-455-5333, Canada,
908,32,METRO - Metro St-Marc,755 Boulevard Bona-Dussault,Saint-Marc-des-Carrières,Québec,,Tél.: 418-268-3212, Canada,
909,32,METRO - Alimentation St-Raymond Inc.,333 Rue Côte Joyeuse,Saint-Raymond,Québec,,Tél.: 418-337-6781, Canada,
910,32,METRO - Metro Chevrefils St-Sauveur,222 A Chemin Lac Millette,Saint-Sauveur,Québec,,Tél.: 450-227-8734, Canada,
911,32,METRO - Marché Metro A. Bordeleau.,621 Route 153,Saint-Tite-de-Champlain,Québec,,Tél.: 418-365-6115, Canada,
912,32,METRO - Marché Metro Plus Fordham,350 Rue Principale,Saint-Zotique,Québec,,Tél.: 450-267-3343, Canada,
913,32,METRO - Metro Plus Valleyfield,398 Chemin Larocque,Salaberry-de-Valleyfield,Québec,,Tél.: 450-370-1444, Canada,
914,32,METRO - Marché Daoust (1985) ,36 Rue du Marché,Salaberry-de-Valleyfield,Québec,,Tél.: 450-373-1555, Canada,
915,32,METRO - Metro Sept-Iles,770 Boulevard Laure,Sept-Îles,Québec,,Tél.: 418-968-3945, Canada,
916,32,METRO - Marché St-Georges,701 108e Avenue,Shawinigan,Québec,,Tél.: 819-533-5445, Canada,
917,32,METRO - Metro Plus Plouffe,4801 Boulevard Bourque,Sherbrooke,Québec,,Tél.: 819-564-7733, Canada,
918,32,METRO - Marché Dion Belvedere,1905 Rue Belvedere Sud,Sherbrooke,Québec,,Tél.: 819-566-5596, Canada,
919,32,METRO - Metro Plus Plouffe,1175 Rue King Est,Sherbrooke,Québec,,Tél.: 819-346-2229, Canada,
920,32,METRO - Alimentation Sylvio Bouchard Inc.,125 Rue Guévremont,Sorel,Québec,,Tél.: 450-742-2818, Canada,
921,32,METRO - Metro Plus Famille Martel,2860 Boulevard des Promenades,Sainte-Marthe-sur-le-Lac,Québec,,Tél.: 450-623-3010, Canada,
922,32,METRO - Metro Plus Famille Martel,753 Boulevard Arthur-Sauvé,Saint-Eustache,Québec,,Tél.: 450-472-8048, Canada,
923,32,METRO - Metro Plus Famille Martel,219 Rue Saint-Laurent,Saint-Eustache,Québec,,Tél.: 450-472-7720, Canada,
924,32,METRO - Metro Plus Riendeau,"2030, Boulevard Laurier Est",Saint-Hyacinthe,Québec,J2T 1K7,Tél.: 450-774-2311, Canada,
925,32,METRO - MetroPlus Elite St-Antoine,633 Boulevard des Laurentides,Saint-Jérôme,Québec,,Tél.: 450-431-7353, Canada,
926,32,METRO - Metro Plus Elite St-Jérôme,430 Rue Mgr Dubois,Saint-Jérôme,Québec,,Tél.: 450-432-3433, Canada,
927,32,METRO - Metro Plus Terrebonne,1300 Boulevard Moody,Terrebonne,Québec,,Tél.: 450-471-3353, Canada,
928,32,METRO - Metro Fogarty Terrebonne,1309 Boulevard des Seigneurs,Terrebonne,Québec,,Tél.: 450-471-5993, Canada,
929,32,METRO - Metro Michel Côté,1415 Rue Grande-Allée,Terrebonne,Québec,,Tél.: 450-492-7272, Canada,
930,32,METRO,121 Rue St-Joseph,Terrebonne,Québec,,Tél.: 450-471-2405, Canada,
931,32,METRO - Metro Plus La Plaine,"5333 Boulevard Laurier, Suite 110",Terrebonne,Québec,,Tél.: 450-477-3616, Canada,
932,32,METRO - Metro Black-Lake,3774 Boulevard Frontenac Ouest,Thetford Mines,Québec,,Tél.: 418-423-7888, Canada,
933,32,METRO - Metro Thurso,325 Rue Victoria,Thurso,Québec,,Tél.: 819-985-3259, Canada,
934,32,METRO - Metro Plus Sorel-Tracy,7000 Avenue Plaza,Tracy,Québec,,Tél.: 450-742-8227, Canada,
935,32,METRO - Metro Plus Fournier,850 Boulevard Thibeau,Trois Rivières,Québec,,Tél.: 819-376-3028, Canada,
936,32,METRO - Metro Plus Jean XXIII,5005 Boulevard Jean XXIII,Trois Rivières,Québec,,Tél.: 819-374-2277, Canada,
937,32,METRO - Metro Masson,165 Boulevard Ste-Madeleine,Trois Rivières,Québec,,Tél.: 819-375-4824, Canada,
938,32,METRO - Metro des Forges,1375 Rue Aubuchon,Trois Rivières,Québec,,Tél.: 819-373-5166, Canada,
939,32,METRO - Metro Val-David,2500 Rue de l'Église,Val-David,Québec,,Tél.: 819-322-2030, Canada,
940,32,METRO - Metro Verchères,617 Duvernay,Verchères,Québec,,Tél.: 450-583-5256, Canada,
941,32,METRO - Metro Lussier,"4615 Rue Foster, C.P. 80",Waterloo,Québec,,Tél.: 450-539-2833, Canada,
942,32,METRO - Supermarché Fletcher Inc.,4840 Rue Sherbrooke Ouest,Westmount,Québec,,Tél.: 514-488-4083, Canada,
943,32,METRO - Alimentation Claude Couture,14 Rue Principale Nord,Windsor,Québec,,Tél.: 819-845-4555, Canada,
944,32,METRO GP - L'Ancienne-Lorette,1875 Rue Notre-Dame,L'Ancienne-Lorette,Québec,,Tél.: 418 872-6236, Canada,
945,32,METRO GP - St-Romuald,2150 Boulevard de la Rive-Sud,Lévis,Québec,,Tél.: 418 839-6003, Canada,
946,32,METRO GP - St-Émile,1200 de la Faune,Québec,Québec,,Tél.: 418 843-5977, Canada,
947,32,Metro Plus GP - Neufchâtel,2425 Boulevard Bastien,Québec,Québec,,Tél.: 418-840-0110, Canada,
948,32,Metro Plus GP - Courville,1050 Avenue LaRue,Québec,Québec,,Tél.: 418-663-1388, Canada,
949,32,Metro Plus GP - Notre-Dame-des-Laurentides,270 Rue de l'Église,Québec,Québec,,Tél.: 418-849-4466, Canada,
950,32,Metro Plus GP - Charlesbourg,8500 Boulevard Henri-Bourassa,Québec,Québec,,Tél.: 418-626-1056, Canada,
951,32,Metro Plus GP - Saint-Augustin-de-Desmaures,"278, route 138",Saint-Augustin-de-Desmaures,Québec,,Tél.: 418 870-1653, Canada,
952,6,ESPOSITO,7030 Boulevard St-Michel,Montréal ,Québec,H2A 2Z4,Tél.: 514-722-1069, Canada,
953,6,ESPOSITO,340 Marcel-Laurin,Saint-Laurent,Québec,,Tél.: 450-663-2222, Canada,
954,6,ESPOSITO,5737 Sherbrooke Ouest,Montréal ,Québec,H4A 1W9,Tél.: 514-483-1436, Canada,
955,6,ESPOSITO,5375 boul Henri-Bourassa Est,Montréal ,Québec,H1G 2T1,"5,143,237,078", Canada,
956,3,Bonanza,6852-A Jean Talon Est,Saint-Léonard,Québec,,Tél.: 514-252-8277, Canada,
957,4,"Marché Gauthier, Larose et Fréchette inc.","1107, route 315, ","Namur, ",Québec,J0V1N0,(819) 426-2123, Canada,
958,4, Marché Tradition ,"1549, Dr Camille Marcoux, ","Blanc-sablon, ",Québec,G0G1W0,(418) 461-2900, Canada,
959,4,Marché Tremblay Huot inc. ,"1011, chemin de Lavernière,, ", L'Étang-du-Nord,Québec,G4T3C8,(418) 986-4233, Canada,
960,4, Marché Guy Desbois inc. ,"209, route 132, ","Sainte-Thérèse-de-Gaspé, ",Québec,G0C3B0,(418) 385-2110, Canada,
961,4,Coop Rivière au Renard ,"48, Montée Morris,", Rivière-au-Renard,Québec,G4X5M6,(418) 269-3300, Canada,
962,4,Boucherie Le Rouge inc. ,"484, route 132, ","Cloridorme, ",Québec,G0E1G0,(418) 395-2811, Canada,
963,4,Magasin Coop Caplan - St-Alphonse ,"22, QC-132, ","Caplan, ",Québec,G0C1H0,(418) 388-2042, Canada,
964,4,Super Marché Grande Vallée Inc. ,"2, rue St-François Xavier Ouest, ","Grande-Vallée, ",Québec,G0E1K0,(418) 393-2010, Canada,
965,4,La Coopérative de St-Quentin ltée ,"145, rue Canada, ,",Saint-Quentin,Québec,E8A1J4,(506) 235-2083, Canada,
966,4,J.M. & C. Dugas Ltée ,"4, rue St-Camille, ","Kedgwick, ",Québec,E8B1K5,(506) 284-2082, Canada,
967,1,Avril Granby,"11, rue Évangéline",Granby,Québec,J2G 6N3,Tél. : (450) 994-4794, Canada,
968,1,Avril Lévis,"1218, rue de la Concorde",Lévis,Québec,G6W 0M7,Tél. : (418) 903-5454, Canada,
969,1,Avril Longueuil,"1185, chemin du Tremblay",Longueuil,Québec,J4N 1R4,Tél. : (450) 448-5515, Canada,
970,1,Avril Magog,"2385, rue Principale Ouest",Magog,Québec,J1X 0J4,Tél. : (819) 742-0200, Canada,
971,1,Avril Québec,"1033, rue des Rocailles",Québec,Québec,G2K 0L4,Tél. : (418) 425-0255, Canada,
972,39,Tigre Géant,1001 boul Curé-Labelle, Laval,Québec,H7V 2V6,, Canada,
973,39,Tigre Géant,1005 rue des Tilleuls, Trois-Rivières,Québec,G8Y 0A6,, Canada,
974,39,Tigre Géant,11400 1re av, Saint-Georges-de-Beauce,Québec,G5Y 5S4,, Canada,
975,39,Tigre Géant,1380 boul du Monseigneur-Langlois, Salaberry-de-Valleyfield,Québec,J6S 1E3,, Canada,
976,39,Tigre Géant,144 rue Papineau, Papineauville,Québec,J0V 1R0 ,, Canada,
977,39,Tigre Géant,15 2e av, Châteauguay,Québec,J6K 3M3,, Canada,
978,39,Tigre Géant,1620 rue Principale N, L'Annonciation,Québec,J0T 1T0 ,, Canada,
979,39,Tigre Géant,179 rue Principale, Cowansville,Québec,J2K 1J3,, Canada,
980,39,Tigre Géant,2115 boul Marcel-Laurin, Saint-Laurent,Québec,H4R 1K4,, Canada,
981,39,Tigre Géant,25 boul Don-Quichotte, L'Île Perrot,Québec,J7V 7X4,, Canada,
982,39,Tigre Géant,25 rue Wellington, Coaticook,Québec,J1A 2H6,, Canada,
983,39,Tigre Géant,340 rue Chambly, Marieville,Québec,J3M 1N9,, Canada,
984,39,Tigre Géant,3520 rte 132, Sainte-Catherine,Québec,J5C 1V9,, Canada,
985,39,Tigre Géant,3714 ch de Chambly,Longueuil,Québec,J4L 1N8,, Canada,
986,39,Tigre Géant,385 av de Buckingham, Gatineau,Québec,J8L 2G8 ,, Canada,
987,39,Tigre Géant,4005 rue Comtois, Sherbrooke,Québec,J1L 1R7 ,, Canada,
988,39,Tigre Géant,414 rue du Pont, Mont-Laurier,Québec,J9L 2R7,, Canada,
989,39,Tigre Géant,4450 boul Saint-Joseph, Saint-Nicéphore,Québec,J2A 1A7,, Canada,
990,39,Tigre Géant,550 122e rue, Shawinigan,Québec,G9P 5G9,, Canada,
991,39,Tigre Géant,625 rue Notre Dame, Saint-Rémi,Québec,J0L 2L0,, Canada,
992,39,Tigre Géant,800 boul Thibeau, Trois-Rivières,Québec,G8T 7A6,, Canada,
993,39,Tigre Géant,812 av Gilles-Villeneuve, Berthierville,Québec,J0K 1A0 ,, Canada,
994,39,Tigre Géant,1380 Boulevard Choquette,Saint-Hyacinthe,Québec,J2S 6G1,,,
995,39,Tigre Géant,825 3e av, Val-d'Or,Québec,J9P 1T2,, Canada,
996,39,Tigre Géant,86 boul Sainte-Anne, Sainte-Anne-des-Plaines,Québec,J0N 1H0,, Canada,
997,25,Marché Dessaulles ,"1340, boul. Choquette, ",Saint-Hyacinthe,Québec,J2S 6G1,, Canada,
998,26,Marché Lacroix - En Faim,"590, boul. Casavant Ouest",Saint-Hyacinthe,Québec,J2S 7S3,, Canada,
999,38,Tienda La Fe,"520, av Brodeur",Saint-Hyacinthe,Québec,J2S 4J5,, Canada,
1000,15,L'Épicier du Centre-Ville (Marché Ami),"1312, Rue des Cascades",Saint-Hyacinthe,Québec,J2S 3H4,, Canada,
1001,28,Marché Richelieu - Marché St-Valérien,"1380, Rue Principale",Saint-Valérien,Québec,J0H 2B0,, Canada,
1002,12,IGA - Extra,3315 ch de Chambly,Longueuil,Québec,J4L 4K5,, Canada,
1003,12,IGA,455 boul Jean-Paul-Vincent,Longueuil,Québec,J4G 1R3,,,
1004,12,IGA Express,5175 boul Cousineau,Longueuil,Québec,J3Y 8X9,,,
1005,34,Provigo Le Marché,1150 rue King-George,Longueuil,Québec,J4N 1P3,,,
1006,18,Loblaw Companies Ltd,3708 ch de Chambly,Longueuil,Québec,J4L 1N8,,,
1007,32,Metro Plus,"2642, ch Chambly",Longueuil,Québec,J4L 1M5,,,
1008,32,Metro Plus,"395, rue Saint-Charles O",Longueuil,Québec,J4H 1G1,,,
1009,32,Metro,"2786, rue de Lyon",Longueuil,Québec,J4L 3R2,,,
1010,28,Marche Richelieu Christian,900 Front,Longueuil,Québec,J4K 1Z8,,,
1011,32,Marché Bellemare Inc,5350 boul Grande-Allée,Saint-Hubert,Québec,J3Y 1A3 ,, Canada,
1012,#N/A,,,,,,, Canada,
1013,32,Metro Plus,"180-5245 Boulevard Cousineau,",Saint-Hubert,Québec,J3Y 6J8,, Canada,
1014,28,Marché Richelieu,10 ch Taché E,Saint-Hubert,Québec,G0L 3L0,, Canada,
1015,36,SUPER C,"5910 Boulevard Cousineau,",Saint-Hubert,Québec,J3Y 7R9,, Canada,
1016,1,Avril Supermarché Santé,8600 boul Leduc,Brossard,Québec,J4Y 0G6,, Canada,
1017,31,MAXI,1035 boul du Quartier,Brossard,Québec,J4Y 0B4,, Canada,
1018,12,Supermarché Picard inc,9105 boul Taschereau,Brossard,Québec,J4Y 3B8,, Canada,
1019,28,Marché Richelieu,"365, rue Jacques-Cartier S",Saint-Jean-sur-Richelieu,Québec,J3B 4K1,, Canada,
1020,34,Michel Milot,"429, rue St-Jacques",Saint-Jean-sur-Richelieu,Québec,J3B 2M1,, Canada,
1021,12,IGA-Marché Perreault Gélinas inc,318 boul Saint-Luc,Saint-Jean-sur-Richelieu,Québec,J2W 2A3,, Canada,
1022,12,IGA-Supermarché Laplante inc,420 2E av,Saint-Jean-sur-Richelieu,Québec,J2X 2B8,, Canada,
1023,12,IGA Richelieu,170 Boul Saint-Luc,Saint-Jean-sur-Richelieu,Québec,J2W 0J2,, Canada,
1024,12,IGA Groupe Pro 40 Inc,435 9E Avenue,Saint-Jean-sur-Richelieu,Québec,J2X 1K5,, Canada,
1025,12,IGA Mini Saint-Jean,1315 Rue Douglas,Saint-Jean-sur-Richelieu,Québec,J2W 0J2,, Canada,
1026,9,,"1583, av Dollard",Montréal,,H8N 1T3,,,
1027,10,,515 rue Roy E,Montréal,,H2L 1C9,,,
1028,32,METRO - O & R Dunn,3824 Boulevard Décarie,Montréal ,Québec,,Tél.: 514-484-8421, Canada,
1029,32,METRO - Metro Plus Pie IX ,4290 Rue Jean-Talon Est,Montréal ,Québec,H1S 1J7,Tél.: 514-725-9321, Canada,
1030,32,METRO - Alimentation Denis Godin Inc.,4405 Rue Ste-Catherine Est,Montréal ,Québec,H1V 1Y4,Tél.: 514-254-0126, Canada,
1031,32,METRO,"4840, rue Sherbrooke O",Montréal,,H3Z 1G8,,,
1032,32,METRO,5100-3575 av du Parc,Montréal,,H2X 3P9,,,
1033,32,METRO - Alimentation Martin Duplessis Inc. ,5150 Chemin de la Côte-des-Neiges,Montréal ,Québec,H3T 1X8,Tél.: 514-738-7377, Canada,
1034,32,METRO - Metro Queen Mary,"5201, ch Queen-Mary, Montréal QC  Itinéraire » ",Montréal,,H3W 1Y2,,,
1035,32,METRO - Alimentation Sylvain Bissonnette Inc.,5300 Rue St-Hubert,Montréal ,Québec,H2J 2Y5,Tél.: 514-272-1832, Canada,
1036,32,METRO - Metro Beaubien,6333 Rue Beaubien Est,Montréal ,Québec,H1M 3E6,Tél.: 514-254-6081, Canada,
1037,32,METRO - Alimentation François Germain Inc.,6500 Boulevard Joseph-Renaud,Montréal ,Québec,H1K 3V4,Tél.: 514-354-0282, Canada,
1038,32,METRO - Metro Plus Domaine,6550 Rue Sherbrooke Est,Montréal ,Québec,H1N 1C6,Tél.: 514-259-8403, Canada,
1039,12,IGA - Supermarché Ornawka inc.,4885 Van Horne,Montréal ,Québec,H3W 1J2,Tél.: 514-731-8336, Canada,
1040,31,"MAXI & Cie, rue Jean-Talon",4325 Rue Jean-Talon Est,Montréal ,Québec,H1S 1J9,Tél.: 514-727-3771, Canada,
1041,34,PROVIGO,5595 Avenue Monkland,Montréal ,Québec,H4A 1E1,Tél.: (514) 482-7273, Canada,
1042,31,"MAXI St-Léonard, boul. des Grandes Prairies",5850 Boulevard des Grandes-Prairies,Montréal ,Québec,,Tél.: 514-327-1377, Canada,
1043,31,"MAXI & Cie Pointe-Claire, Transcanada",6381 Route Transcanadienne,Montréal ,Québec,,Tél.: 514-694-7450, Canada,
1044,36,SUPER C,6000 Boulevard Henri-Bourassa Est,Montréal ,Québec,,Tél.: 514-323-4370, Canada,
1045,31,"MAXI St-Léonard, rue Langelier",6750 Rue Jean-Talon Est,Montréal ,Québec,H1S 1N1,Tél.: 514-255-2755, Canada,
1046,34,PROVIGO,6000 Boulevard Laurendeau,Montréal ,Québec,,Tél.: (514) 766-7367, Canada,
1047,36,Place Bourassa,"6000, boul Henri-Bourassa E,  QC  Itinéraire » ",Montréal,Montréal-Nord,H1G 2T6,,,
1048,31,"MAXI & Cie Bedford, ch. de la Côte-des- Neiges",6825 Chemin de la Côte-des-Neiges,Montréal ,Québec,H3S 2B6,Tél.: 514-734-1280, Canada,
1049,30,Marché Barcelo Inc,1200 rue Beaubien E,Montréal,Québec,H2S 1T7,,,
1050,30,Le Marché du Village Côte-des-Neiges Enr.,5415 av Gatineau,Montréal,Québec,H3T 1X4,,,
1051,12,IGA - Marché Louise Ménard,5 Place Desjardins,Montréal ,Québec,,Tél.: 514-843-6116, Canada,
1052,30,Supermarché Dad & Frères Inc.,2535 rue Jean-Talon E,Montréal,Québec,H2A 1T6,,,
1053,20, Marché Sélect-Choix,"3275 rue Masson, Montréal QC  Itinéraire » ",Montréal,,H1X 1R3,,,
1054,31,"MAXI LaSalle, Angrignon",7081 Boulevard Newman,Montréal ,Québec,H8N 1X1,Tél.: 514-364-1090, Canada,
1055,34,PROVIGO,6475 Boulevard Léger,Montréal ,Québec,H1G 1L4,Tél.: (514) 321-0503, Canada,
1056,12,IGA - Tellier,5000 Beaubien Est,Montréal ,Québec,,Tél.: 514-259-8281, Canada,
1057,12,Gérard Champagne Ltée,5144 rue Bannantyne,Verdun,Québec,H4G 1G5,,,
1058,28,Les Entreprises Ouellet et Raymond,3795 rue Saint-André,Montréal,Québec,H2L 3V6,,,
1059,19,Ami Marché D&T,"1905 rue Ontario E, Montréal QC Itinéraire » ",Montréal,,H2K 1T9 ,,,
1060,28,Marché M.C. Gagnon,3350-5199 rue Sherbrooke E,Montréal,Québec,H1T 3X2,,,
1061,32,METRO - Metro Somerled,6645 Avenue Somerled,Montréal ,Québec,H4V 1T3,Tél.: 514-486-3042, Canada,
1062,32,METRO - Metro Plus Marché Marcanio,7172 Rue Bombardier,Montréal ,Québec,,Tél.: 514-352-5447, Canada,
1063,32,METRO - Marché J.M. Gravel & Fils,"740 Chemin Cote Vertu, suite 134",Montréal ,Québec,,Tél.: 514-747-3145, Canada,
1064,32,METRO - E. Bourdon & Fils,760 Rue Jean-Talon Est,Montréal ,Québec,H2R 1V1,Tél.: 514-270-5226, Canada,
1065,32,METRO - Metro Plus Champlain,7800 Boulevard Champlain,Montréal ,Québec,,Tél.: 514-366-5716, Canada,
1066,34,PROVIGO,6485 Rue Sherbrooke Ouest,Montréal ,Québec,H4B 1N3 ,Tél.: (514) 488-5521, Canada,
1067,28,Supermarché Chauvin,7890 rue Saint-Denis,Montréal,Québec,H2R 2E8,,,
1068,20,Épicerie J.D.V. Inc,"3461 boul Gouin E,",Montréal,,H1H 1B2,,,
1069,7,Euromarché,"11847, rue Lachapelle",Montréal,,H4J 2M3,,,
1070,12,IGA - Supermarché Tellier Ltée,5375 Boulevard Henri-Bourassa Est,Montréal ,Québec,,Tél.: 514-323-3700, Canada,
1071,7,Euromarché,"224, rue Fleury O",Montréal,,H3L 1T7,,,
1072,12,Marché Duchemin et Frères,5600 boul Henri-Bourassa O,Montréal,Québec,H4R 0M6,,,
1073,42,William J. Walter ,"244, place du Marché Nord",Montréal,,H2S 1A1,,,
1074,23,,"12200 boul Laurentien, Montréal QC  Itinéraire » ",Montréal,,H4K 1M9,,,
1075,34,,6600 rue Saint-Jacques O,Montréal,,H3B 1V8,,,
1076,34,,6767 boul Newman,Montréal,,H8N 3E4,,,
1077,31,"MAXI Place Versailles, rue Sherbrooke Est",7455 Rue Sherbrooke Est,Montréal ,Québec,H1N 1E8,Tél.: 514-353-7930, Canada,
1078,31,MAXI,7605 boul Maurice-Duplessis,Montréal,,H1E 7N2,,,
1079,18,LOBLAWS,6852-A Jean Talon Est,Montréal ,Québec,,Tél.: 514-252-8277, Canada,
1080,36,SUPER C,6900 St-Jacques,Montréal ,Québec,,Tél.: 514-484-3136, Canada,
1081,36,SUPER C,6900 St-Jacques,Montréal ,Québec,H4B 1V8,Tél.: 514-484-3136, Canada,
1082,20, Marché LWK,"7609 rue Centrale,  QC  Itinéraire » ",Montréal,,H8P 1K8,,,
1083,31,MAXI & Cie av. Papineau,8305 Avenue Papineau,Montréal ,Québec,H2M 2G2,Tél.: 514-376-6457, Canada,
1084,32,METRO - Metro Plus Rivière des Prairies,8115 Boulevard Maurice-Duplessis,Montréal ,Québec,,Tél.: 514-648-5077, Canada,
1085,35,Rachelle Béry,"4810, boulevard St-Laurent",Montréal ,Québec,,514-849-4118, Canada,
1086,36,SUPER C,"7401 boul Newman, Montréal QC  Itinéraire » ",Montréal,,H8N 1X3,,,
1087,32,METRO - Alimentation F. Lévesque Inc.,8355 Rue Notre-Dame Est,Montréal ,Québec,H1L 3L2,Tél.: 514-352-0181, Canada,
1088,32,METRO - Supermarché André-Grasset,8935 Rue André-Grasset,Montréal ,Québec,H2M 2E9,Tél.: 514-382-1465, Canada,
1089,28,,5051 rue Perras,Montréal,Québec,H1G 1X1,,,
1090,17,,"1855, av O'Brien",Montréal,,H4L 3W6 ,,,
1091,42,William J. Walter ,"5, place Simon-Valois ",Montréal,,H1W 0A6,,,
1092,27,,,Montréal,Québec,,,,
1093,16,Marché Jean-Talon,,Montréal,Québec,,,,
1094,34,PROVIGO,7600 Sherbrooke Est,Montréal ,Québec,H1N 3W1 ,Tél.: (514)257-4511, Canada,
1095,2,Marché Adonis,225 rue Peel,Montréal,Québec,H3C 2G6,,,
1096,12,Alimentation Shaidman et Pagano Inc,"5800, boul Cavendish",Côte Saint-Luc,Québec,H4W 2T5,,,
1097,35,Rachelle Béry,"505, Rachel Est",Montréal ,Québec,H2J 2H3,514-524-0725, Canada,
1098,37,Supermarché PA,5242 Av du Parc,Montréal,Québec, H2V 4G7,, Canada,
1099,30,MARCHÉS TRADITION,7373 boul Langelier,Montréal,Québec,H1S 1V7,,,
1100,42,William J. Walter ,6-138 av Atwater,Montréal,,H4C 2H6,,,
1101,35,Rachelle Béry,"7055, boulevard St-Laurent",Montréal ,Québec,,514-419-6885, Canada,
1102,42,William J. Walter ,"7500, boul les Galeries d'Anjou",Montréal,,H1M 3M4,,,
1103,35,Rachelle Béry,"905, rue Fleury Est",Montréal ,Québec,H2C 1P6,438-382-9333, Canada,
1104,12,IGA - Marché CDL Tellier inc.,6190 Boulevard Henri-Bourassa Est,Montréal ,Québec,,Tél.: 514-321-0120, Canada,
1105,12,Shell,6505 boul Henri-Bourassa E,Montréal,Québec,H1G 2V5,,,
1106,12,IGA - Plaza Monk,6675 Boulevard Monk,Montréal ,Québec,H4E 3J2,Tél.: 514-767-5323, Canada,
1107,12,IGA Langelier ,"7150, boul Langelier",Saint-Léonard,Québec,H1S 2X6,,,
1108,12,"Supermarché Pagano, Shnaidman Inc","7151, ch de la Côte-Saint-Luc",Côte-Saint-Luc,Québec,H4V 1J2,,,
1109,12,IGA - Alimentation Hochelaga G.S. Inc.,7975 Rue Hochelaga,Montréal ,Québec,,Tél.: 514-351-7340, Canada,
1110,11,,"1255, boul Shevchenko",Montréal,,H8N 1N8,,,
1111,12,IGA Extra Beck ouvert,"8130, boul Champlain, ",Lasalle,Québec,H8P 1B4,,,
1112,12,Marché Louise Ménard Inc. (Place Dupuis),825 rue Sainte-Catherine E,Montréal,Québec,H2L 2E4,,,
1113,12,IGA - Marché Barcelo,"900, rue Saint-Zotique E",Montréal ,Québec,H2S 1M8,Tél.: 514-270-9440, Canada,
1114,36,SUPER C,7800 boul Champlain,Montréal,,H8P 1B3,,,
1115,36,SUPER C,"8115, boul Maurice-Duplessis",Montréal,,H1E 2S6,,,
1116,36,SUPER C Pie IX Jarry,8200 Boulevard Pie-IX,Montréal ,Québec,,Tél.: 514-722-4328, Canada,
1117,6,Les Aliments Esposito,"1263, rue Jean-Talon E, Montréal QC  Itinéraire » ",Montréal,,H2R 1W4,,,
1118,28,,"4700, rue La-Fontaine",Montréal,Québec,H1V 1P9,,,
1119,7,Euromarché,"10181, boul Saint-Michel",Montréal,,H1H 5G9,,,
1120,34,PROVIGO,8570 Boulevard St-Laurent,Montréal ,Québec,H2P 2M8,Tél.: (514) 384-5101, Canada,
1121,24,,"8130, boul Champlain,  QC  Itinéraire » ",Montréal,,H8P 1B4,,,
1122,12,IGA - Supermarché Khetani Ltée,905 Fleury Est,Montréal ,Québec,,Tél.: 514-381-5161, Canada,
1123,21,,"6852A, rue Jean-Talon E,  QC  Itinéraire » ",Montréal,,H1S 1N1,,,
1124,22,,"3760, rue Villeray",Montréal,,H2A 1G4,,,
1125,40,,"195, Place du Marché-du-Nord",Montréal,,H2S 1A2,,,
1126,6,Esposito Food Market Ltd,,Montréal,,H4N 1H4,,,
1127,12,Marché Tellier Beaubien inc.,,Montréal,,,,,
